CircleName,RegionName,DivisionName,PinCodeName,Pincode,OfficeType,Delivery,District,StateName,Statecode,Latitude,Longitude
Andhra Pradesh Circle,Kurnool Region,Hindupur Division,Peddakotla B.O,515631,BO,Delivery,ANANTAPUR,ANDHRA PRADESH,AD,14.5689,77.85624
Andhra Pradesh Circle,Kurnool Region,Hindupur Division,Pinnadhari B.O,515631,BO,Delivery,ANANTAPUR,ANDHRA PRADESH,AD,14.5281,77.857014
Andhra Pradesh Circle,Kurnool Region,Hindupur Division,Yerraguntapalle B.O,515631,BO,Delivery,ANANTAPUR,ANDHRA PRADESH,AD,14.561111,77.85715
Bihar Circle,"East Region, Bhagalpur",Bhagalpur Division,Sahjatpur BO,812005,BO,Delivery,BHAGALPUR,BIHAR,BR,25.21607,86.946762
Bihar Circle,"East Region, Bhagalpur",Bhagalpur Division,Bharakhand Naybas BO,853203,BO,Delivery,BHAGALPUR,BIHAR,BR,25.4067,6.8052
Bihar Circle,"East Region, Bhagalpur",Bhagalpur Division,Nagarpara BO,853203,BO,Delivery,BHAGALPUR,BIHAR,BR,25.4137352,86.8797372
Bihar Circle,"East Region, Bhagalpur",Bhagalpur Division,Raipur BO,853203,BO,Delivery,BHAGALPUR,BIHAR,BR,25.4234256,86.8483
Bihar Circle,"East Region, Bhagalpur",Bhagalpur Division,Sathishnagar BO,853203,BO,Delivery,BHAGALPUR,BIHAR,BR,25.404242,86.8226179
Bihar Circle,"East Region, Bhagalpur",Bhagalpur Division,Dariapur BO,812006,BO,Delivery,BHAGALPUR,BIHAR,BR,24.222,86.365
Bihar Circle,"East Region, Bhagalpur",Bhagalpur Division,Haridaspur BO,812006,BO,Delivery,BHAGALPUR,BIHAR,BR,25.369,86.356
Bihar Circle,"East Region, Bhagalpur",Bhagalpur Division,Sajour BO,812006,BO,Delivery,BHAGALPUR,BIHAR,BR,25.365,85.366
Bihar Circle,"East Region, Bhagalpur",Bhagalpur Division,Bhowadeorhi BO,853204,BO,Delivery,MADHEPURA,BIHAR,BR,25.2153,86.9362
Bihar Circle,"East Region, Bhagalpur",Bhagalpur Division,Dharahara BO,853204,BO,Delivery,BHAGALPUR,BIHAR,BR,25.2564,86.4022
Bihar Circle,"East Region, Bhagalpur",Bhagalpur Division,Dimaha BO,853204,BO,Delivery,BHAGALPUR,BIHAR,BR,25.32116,87.1572
Bihar Circle,"East Region, Bhagalpur",Bhagalpur Division,Khairpurkadwa BO,853204,BO,Delivery,BHAGALPUR,BIHAR,BR,25.4685,87.0589
Bihar Circle,"East Region, Bhagalpur",Bhagalpur Division,Latra BO,853204,BO,Delivery,BHAGALPUR,BIHAR,BR,25.366,84.369
Bihar Circle,"East Region, Bhagalpur",Bhagalpur Division,Madrauni BO,853204,BO,Delivery,BHAGALPUR,BIHAR,BR,25.999,84.698
Bihar Circle,"East Region, Bhagalpur",Bhagalpur Division,Mohanpur BO,853204,BO,Delivery,BHAGALPUR,BIHAR,BR,25.023,86.126
Bihar Circle,"East Region, Bhagalpur",Bhagalpur Division,Pakra B.O,853204,BO,Delivery,BHAGALPUR,BIHAR,BR,NA,NA
Bihar Circle,"East Region, Bhagalpur",Bhagalpur Division,Sahuparbatta BO,853204,BO,Delivery,BHAGALPUR,BIHAR,BR,25.3387,87.0585
Bihar Circle,"East Region, Bhagalpur",Bhagalpur Division,Amapali BO,813209,BO,Delivery,BHAGALPUR,BIHAR,BR,25.3285,87.5132
Bihar Circle,"East Region, Bhagalpur",Bhagalpur Division,Mohanpur Govinpur BO,813209,BO,Delivery,BHAGALPUR,BIHAR,BR,26.2465,87.3969
Bihar Circle,"East Region, Bhagalpur",Bhagalpur Division,Rifatpur BO,813209,BO,Delivery,BHAGALPUR,BIHAR,BR,25.3114,87.4201
Andhra Pradesh Circle,Visakhapatnam Region,Visakhapatnam Division,Palavalasa B.O,530052,BO,Delivery,VISAKHAPATANAM,ANDHRA PRADESH,AD,17.89,83.34
Andhra Pradesh Circle,Kurnool Region,Anantapur Division,Sreedharghatta B.O,515871,BO,Delivery,ANANTAPUR,ANDHRA PRADESH,AD,14.95,76.41
Andhra Pradesh Circle,Kurnool Region,Anantapur Division,N.Thimmapuram B.O,515842,BO,Delivery,ANANTAPUR,ANDHRA PRADESH,AD,15.67,77.41
Andhra Pradesh Circle,Kurnool Region,Anantapur Division,Poliki B.O,515842,BO,Delivery,ANANTAPUR,ANDHRA PRADESH,AD,15.02,76.63
Andhra Pradesh Circle,Kurnool Region,Anantapur Division,Dosaludiki B.O,515803,BO,Delivery,ANANTAPUR,ANDHRA PRADESH,AD,14.68,77.61
Andhra Pradesh Circle,Kurnool Region,Anantapur Division,Kottala B.O,515803,BO,Delivery,ANANTAPUR,ANDHRA PRADESH,AD,15.16,77.39
Andhra Pradesh Circle,Kurnool Region,Anantapur Division,Ayyavaripalli B.O,515775,BO,Delivery,ANANTAPUR,ANDHRA PRADESH,AD,15.03,77.46
Andhra Pradesh Circle,Kurnool Region,Anantapur Division,Chinnavadugur B.O,515405,BO,Delivery,ANANTAPUR,ANDHRA PRADESH,AD,15.02,77.67
Andhra Pradesh Circle,Kurnool Region,Anantapur Division,Muradi B.O,515865,BO,Delivery,ANANTAPUR,ANDHRA PRADESH,AD,14.85,76.86
Andhra Pradesh Circle,Kurnool Region,Anantapur Division,Obulapuram B.O,515865,BO,Delivery,ANANTAPUR,ANDHRA PRADESH,AD,14.83,76.66
Andhra Pradesh Circle,Kurnool Region,Anantapur Division,Pallepalli B.O,515865,BO,Delivery,ANANTAPUR,ANDHRA PRADESH,AD,14.6,76.43
Andhra Pradesh Circle,Kurnool Region,Anantapur Division,Appecharla B.O,515455,BO,Delivery,ANANTAPUR,ANDHRA PRADESH,AD,14.93,77.58
Andhra Pradesh Circle,Kurnool Region,Anantapur Division,Chandana B.O,515455,BO,Delivery,ANANTAPUR,ANDHRA PRADESH,AD,15.01,77.76
Andhra Pradesh Circle,Kurnool Region,Anantapur Division,Lakshumpalli B.O,515455,BO,Delivery,ANANTAPUR,ANDHRA PRADESH,AD,15.19,77.82
Andhra Pradesh Circle,Kurnool Region,Anantapur Division,Chittur B.O,515611,BO,Delivery,ANANTAPUR,ANDHRA PRADESH,AD,15.32,77.19
Andhra Pradesh Circle,Kurnool Region,Anantapur Division,Illuru B.O,515611,BO,Delivery,ANANTAPUR,ANDHRA PRADESH,AD,15.38,77.51
Andhra Pradesh Circle,Kurnool Region,Anantapur Division,Kallumadi B.O,515611,BO,Delivery,ANANTAPUR,ANDHRA PRADESH,AD,15.49,77.68
Andhra Pradesh Circle,Kurnool Region,Anantapur Division,Avuladatla B.O,515867,BO,Delivery,ANANTAPUR,ANDHRA PRADESH,AD,14.15,75.81
Andhra Pradesh Circle,Kurnool Region,Anantapur Division,B.N.Halli B.O,515867,BO,Delivery,ANANTAPUR,ANDHRA PRADESH,AD,15.23,76.83
Andhra Pradesh Circle,Kurnool Region,Anantapur Division,Belodu B.O,515867,BO,Delivery,ANANTAPUR,ANDHRA PRADESH,AD,14.59,76.21
Andhra Pradesh Circle,Kurnool Region,Anantapur Division,Rayampalli B.O,515812,BO,Delivery,ANANTAPUR,ANDHRA PRADESH,AD,15.4,77.53
Andhra Pradesh Circle,Kurnool Region,Anantapur Division,Renimakulapalli B.O,515812,BO,Delivery,ANANTAPUR,ANDHRA PRADESH,AD,15.46,77.22
Andhra Pradesh Circle,Kurnool Region,Anantapur Division,Shaikshanipalli B.O,515812,BO,Delivery,ANANTAPUR,ANDHRA PRADESH,AD,15.52,77.33
Andhra Pradesh Circle,Kurnool Region,Anantapur Division,Undabanda B.O,515812,BO,Delivery,ANANTAPUR,ANDHRA PRADESH,AD,15.32,76.54
Andhra Pradesh Circle,Kurnool Region,Anantapur Division,Gadehothur B.O,515832,BO,Delivery,ANANTAPUR,ANDHRA PRADESH,AD,15.49,77.22
Andhra Pradesh Circle,Kurnool Region,Anantapur Division,Kamalapadu B.O,515832,BO,Delivery,ANANTAPUR,ANDHRA PRADESH,AD,15.03,76.96
Andhra Pradesh Circle,Kurnool Region,Anantapur Division,Bollanaguddem B.O,515870,BO,Delivery,ANANTAPUR,ANDHRA PRADESH,AD,15.05,77.17
Andhra Pradesh Circle,Visakhapatnam Region,Visakhapatnam Division,Ramavaram B.O,531173,BO,Delivery,VISAKHAPATANAM,ANDHRA PRADESH,AD,17.86,83.24
Andhra Pradesh Circle,Visakhapatnam Region,Visakhapatnam Division,Bhandevupuram B.O,531219,BO,Delivery,VISAKHAPATANAM,ANDHRA PRADESH,AD,17.99,83.29
Andhra Pradesh Circle,Kurnool Region,Anantapur Division,Singanahalli B.O,515871,BO,Delivery,ANANTAPUR,ANDHRA PRADESH,AD,14.93,76.42
Andhra Pradesh Circle,Kurnool Region,Anantapur Division,Uddihal B.O,515871,BO,Delivery,ANANTAPUR,ANDHRA PRADESH,AD,15,76.38
Andhra Pradesh Circle,Kurnool Region,Anantapur Division,Kadadarabenchi B.O,515842,BO,Delivery,ANANTAPUR,ANDHRA PRADESH,AD,15.44,76.64
Bihar Circle,"East Region, Bhagalpur",Bhagalpur Division,Salempurtola BO,813209,BO,Delivery,BHAGALPUR,BIHAR,BR,86.26455,24.75533
Bihar Circle,"East Region, Bhagalpur",Bhagalpur Division,Srinagar BO,813209,BO,Delivery,BHAGALPUR,BIHAR,BR,25.369,84.265
Bihar Circle,"East Region, Bhagalpur",Bhagalpur Division,Suktia BO,853205,BO,Delivery,BHAGALPUR,BIHAR,BR,24.306,86.035
Bihar Circle,"East Region, Bhagalpur",Bhagalpur Division,Tintangadiara BO,853205,BO,Delivery,BHAGALPUR,BIHAR,BR,24.308,86.29
Bihar Circle,"East Region, Bhagalpur",Bhagalpur Division,Bahadurpur BO,813210,BO,Delivery,BHAGALPUR,BIHAR,BR,25.302,87.201
Bihar Circle,"East Region, Bhagalpur",Bhagalpur Division,Chakdaria BO,813210,BO,Delivery,BHAGALPUR,BIHAR,BR,24.897,86.209
Bihar Circle,"East Region, Bhagalpur",Bhagalpur Division,Machipur BO,813210,BO,Delivery,BHAGALPUR,BIHAR,BR,25.201,87.201
Bihar Circle,"East Region, Bhagalpur",Bhagalpur Division,Pharka BO,813210,BO,Delivery,BHAGALPUR,BIHAR,BR,84.201,87.201
Bihar Circle,"East Region, Bhagalpur",Bhagalpur Division,Shaukarpur BO,813210,BO,Delivery,BHAGALPUR,BIHAR,BR,25,87.258
Bihar Circle,"East Region, Bhagalpur",Bhagalpur Division,Bakchappar BO,813108,BO,Delivery,BHAGALPUR,BIHAR,BR,24.8832,86.9267
Bihar Circle,"East Region, Bhagalpur",Bhagalpur Division,Kapsona BO,813108,BO,Delivery,BHAGALPUR,BIHAR,BR,24.7757,86.872
Bihar Circle,"East Region, Bhagalpur",Bhagalpur Division,Kodanda BO,813108,BO,Delivery,BHAGALPUR,BIHAR,BR,24.8932,86.9367
Bihar Circle,"East Region, Bhagalpur",Bhagalpur Division,Logain BO,813108,BO,Delivery,BANKA,BIHAR,BR,24.7617,86.9126
Bihar Circle,"East Region, Bhagalpur",Bhagalpur Division,Dumaria BO,813212,BO,Delivery,BANKA,BIHAR,BR,86.123,22.154
Bihar Circle,"East Region, Bhagalpur",Bhagalpur Division,Harchandi BO,813105,BO,Delivery,BANKA,BIHAR,BR,84.526,24.234
Bihar Circle,"East Region, Bhagalpur",Bhagalpur Division,Bhawanipur BO,813203,BO,Delivery,BHAGALPUR,BIHAR,BR,86.946136,25.2182779
Bihar Circle,"East Region, Bhagalpur",Bhagalpur Division,Bhawanpura BO,853202,BO,Delivery,BHAGALPUR,BIHAR,BR,24.205,84.025
Bihar Circle,"East Region, Bhagalpur",Bhagalpur Division,Ishapur Chorhar BO,853202,BO,Delivery,BHAGALPUR,BIHAR,BR,25.367,86.325
Bihar Circle,"East Region, Bhagalpur",Bhagalpur Division,Jamunia BO,853202,BO,Delivery,BHAGALPUR,BIHAR,BR,25.697,85.222
Bihar Circle,"East Region, Bhagalpur",Bhagalpur Division,Kaluchak Bispuria BO,853202,BO,Delivery,BHAGALPUR,BIHAR,BR,24.69,84.254
Bihar Circle,"East Region, Bhagalpur",Bhagalpur Division,Ekdara BO,813222,BO,Delivery,BHAGALPUR,BIHAR,BR,24.87176,86.9869722
Bihar Circle,"East Region, Bhagalpur",Bhagalpur Division,Kishandaspur BO,813222,BO,Delivery,BHAGALPUR,BIHAR,BR,24.814,84.125
Bihar Circle,"East Region, Bhagalpur",Bhagalpur Division,Laskari BO,813105,BO,Delivery,BANKA,BIHAR,BR,84.253,24.237
Bihar Circle,"East Region, Bhagalpur",Bhagalpur Division,Nawada bazar BO,813105,BO,Delivery,BANKA,BIHAR,BR,84.536,24.321
Bihar Circle,"East Region, Bhagalpur",Bhagalpur Division,Rauka BO,813105,BO,Delivery,BANKA,BIHAR,BR,85.326,25.326
Bihar Circle,"East Region, Bhagalpur",Bhagalpur Division,Rupsa BO,813105,BO,Delivery,BANKA,BIHAR,BR,84.5263,24.2342
Bihar Circle,"East Region, Bhagalpur",Bhagalpur Division,Saino BO,813105,BO,Delivery,BHAGALPUR,BIHAR,BR,84.5236,24.236
Bihar Circle,"East Region, Bhagalpur",Bhagalpur Division,Patharghatta BO,813203,BO,Delivery,BHAGALPUR,BIHAR,BR,25.2873053,87.2560803
Bihar Circle,"East Region, Bhagalpur",Bhagalpur Division,Shobhnathpur BO,813203,BO,Delivery,BHAGALPUR,BIHAR,BR,25.2279357,87.274423
Bihar Circle,"East Region, Bhagalpur",Bhagalpur Division,Laxmipur BO,813222,BO,Delivery,BHAGALPUR,BIHAR,BR,86.562,24.369
Bihar Circle,"East Region, Bhagalpur",Bhagalpur Division,Ranidiara BO,813222,BO,Delivery,BHAGALPUR,BIHAR,BR,24.125,84.521
Bihar Circle,"East Region, Bhagalpur",Bhagalpur Division,Puraini BO,812005,BO,Delivery,BHAGALPUR,BIHAR,BR,25.325,87.321
Bihar Circle,"East Region, Bhagalpur",Bhagalpur Division,Bharatkhand dyorhi BO,853203,BO,Delivery,BHAGALPUR,BIHAR,BR,25.3814076,86.8207789
Bihar Circle,"East Region, Bhagalpur",Bhagalpur Division,Chakrami BO,853203,BO,Delivery,BHAGALPUR,BIHAR,BR,24.87176,86.9869722
Bihar Circle,"East Region, Bhagalpur",Bhagalpur Division,Khajraitha BO,853203,BO,Delivery,BHAGALPUR,BIHAR,BR,25.1536244,86.9342411
Bihar Circle,"East Region, Bhagalpur",Bhagalpur Division,Madhurapur BO,853203,BO,Delivery,BHAGALPUR,BIHAR,BR,2.2798117,87.2941568
Andhra Pradesh Circle,Kurnool Region,Hindupur Division,Budilisettipalli B.O,515241,BO,Delivery,ANANTAPUR,ANDHRA PRADESH,AD,13.9101,77.7201
Andhra Pradesh Circle,Kurnool Region,Hindupur Division,Polepalli B.O,515101,BO,Delivery,ANANTAPUR,ANDHRA PRADESH,AD,14.23,77.63
Telangana Circle,Hyderabad Region,Nizamabad Division,Arsapalli B.O,503186,BO,Delivery,NIZAMABAD,TELANGANA,TS,18.6845544,78.0773742
Telangana Circle,Hyderabad Region,Nizamabad Division,Camp Ootpalli B.O,503180,BO,Delivery,NIZAMABAD,TELANGANA,TS,18.5329923,77.618717
Telangana Circle,Hyderabad Region,Nizamabad Division,Eraspalli B.O,503180,BO,Delivery,NIZAMABAD,TELANGANA,TS,18.5329923,77.618717
Telangana Circle,Hyderabad Region,Nizamabad Division,Singitham B.O,503187,BO,Delivery,KAMAREDDY,TELANGANA,TS,18.3096558,77.9466324
Telangana Circle,Hyderabad Region,Nizamabad Division,Mahmadpur B.O,503101,BO,Delivery,KAMAREDDY,TELANGANA,TS,18.2108201,78.4853495
Telangana Circle,Hyderabad Region,Nizamabad Division,Malkapur B.O,503125,BO,Delivery,KAMAREDDY,TELANGANA,TS,18.2127127,78.549741
Telangana Circle,Hyderabad Region,Nizamabad Division,Tujlapur B.O,503125,BO,Delivery,KAMAREDDY,TELANGANA,TS,18.1894413,78.5477163
Telangana Circle,Hyderabad Region,Nizamabad Division,Yadaram B.O,503125,BO,Delivery,KAMAREDDY,TELANGANA,TS,18.3201713,78.3363317
Telangana Circle,Hyderabad Region,Nizamabad Division,Ugrawai B.O,503112,BO,Delivery,KAMAREDDY,TELANGANA,TS,18.3258076,78.390802
Telangana Circle,Hyderabad Region,Nizamabad Division,Yellappagonda B.O,503112,BO,Delivery,KAMAREDDY,TELANGANA,TS,18.324703,78.3361217
Rajasthan Circle,Jodhpur Region,Barmer Division,Akal B.O,344704,BO,Delivery,BARMER,RAJASTHAN,RJ,24.98773,71.32367
Rajasthan Circle,Jodhpur Region,Barmer Division,Daukiyon ka Tala B.O,344032,BO,Delivery,BARMER,RAJASTHAN,RJ,26.105107,72.175883
Rajasthan Circle,Jodhpur Region,Jodhpur Division,NDC Jodhpur,342002,PO,Delivery,JODHPUR,RAJASTHAN,RJ,26.243,73.021
Rajasthan Circle,Jodhpur Region,Barmer Division,Pandarwali B.O,344706,BO,Delivery,BARMER,RAJASTHAN,RJ,24.803237,71.218754
Telangana Circle,Hyderabad Region,Nizamabad Division,PALVANCHA B.O,503112,BO,Delivery,KAMAREDDY,TELANGANA,TS,18.3212004,78.4365975
Telangana Circle,Hyderabad Region,Nizamabad Division,Polkampet B.O,503124,BO,Delivery,KAMAREDDY,TELANGANA,TS,18.1745669,78.1611606
Telangana Circle,Hyderabad Region,Nizamabad Division,Pothiapalli B.O,503124,BO,Delivery,KAMAREDDY,TELANGANA,TS,18.22808,78.1813655
Telangana Circle,Hyderabad Region,Nizamabad Division,Dongli B.O,503309,BO,Delivery,KAMAREDDY,TELANGANA,TS,18.5170016,77.7086999
Telangana Circle,Hyderabad Region,Nizamabad Division,Tandur B.O,503108,BO,Delivery,KAMAREDDY,TELANGANA,TS,18.1057875,78.0782538
Telangana Circle,Hyderabad Region,Nizamabad Division,Hasanpalli B.O,503302,BO,Delivery,KAMAREDDY,TELANGANA,TS,18.2258833,77.967685
Telangana Circle,Hyderabad Region,Nizamabad Division,Vaddepalli B.O,503302,BO,Delivery,KAMAREDDY,TELANGANA,TS,18.2298028,77.9355044
Telangana Circle,Hyderabad Region,Nizamabad Division,JALALPUR B.O,503201,BO,Delivery,NIZAMABAD,TELANGANA,TS,18.508287,77.970239
Telangana Circle,Hyderabad Region,Nizamabad Division,Thirumalapur B.O,503187,BO,Delivery,KAMAREDDY,TELANGANA,TS,18.3195315,77.9114506
Telangana Circle,Hyderabad Region,Nizamabad Division,Bhagirathipalli B.O,503101,BO,Delivery,KAMAREDDY,TELANGANA,TS,18.1277984,78.4665583
Telangana Circle,Hyderabad Region,Nizamabad Division,Rameshwarpalli B.O,503101,BO,Delivery,KAMAREDDY,TELANGANA,TS,18.1900503,78.3900424
Telangana Circle,Hyderabad Region,Nizamabad Division,Issanagar B.O,503125,BO,Delivery,KAMAREDDY,TELANGANA,TS,18.1837178,78.5129407
Telangana Circle,Hyderabad Region,Nizamabad Division,Hasgal B.O,503306,BO,Delivery,KAMAREDDY,TELANGANA,TS,18.4344583,77.7564916
Telangana Circle,Hyderabad Region,Nizamabad Division,Amberipet B.O,503123,BO,Delivery,KAMAREDDY,TELANGANA,TS,18.2673626,78.4995897
Telangana Circle,Hyderabad Region,Nizamabad Division,Lingupalli B.O,503102,BO,Delivery,KAMAREDDY,TELANGANA,TS,18.41245,78.689513
Telangana Circle,Hyderabad Region,Nizamabad Division,Kyasampalli  B.O,503112,BO,Delivery,KAMAREDDY,TELANGANA,TS,18.3096846,78.3703829
Telangana Circle,Hyderabad Region,Nizamabad Division,Machareddy B.O,503112,BO,Delivery,KAMAREDDY,TELANGANA,TS,18.3330237,78.4974098
Telangana Circle,Hyderabad Region,Nizamabad Division,Tekriyal B.O,503112,BO,Delivery,KAMAREDDY,TELANGANA,TS,18.3439451,78.3037806
Telangana Circle,Hyderabad Region,Nizamabad Division,Gundekallur B.O,503309,BO,Delivery,KAMAREDDY,TELANGANA,TS,18.4592782,77.7291779
Andhra Pradesh Circle,Kurnool Region,Cuddapah Division,Pincha Dam Site B.O,516129,BO,Delivery,Y.S.R.,ANDHRA PRADESH,AD,13.9,79
Andhra Pradesh Circle,Kurnool Region,Cuddapah Division,Jyothi B.O,516237,BO,Delivery,Y.S.R.,ANDHRA PRADESH,AD,14.49,78.91
Andhra Pradesh Circle,Kurnool Region,Cuddapah Division,P. Kothapalli B.O,516237,BO,Delivery,Y.S.R.,ANDHRA PRADESH,AD,14.5,78.9
Andhra Pradesh Circle,Kurnool Region,Cuddapah Division,Vontithatipalli B.O,516237,BO,Delivery,Y.S.R.,ANDHRA PRADESH,AD,14.48,78.93
Andhra Pradesh Circle,Kurnool Region,Cuddapah Division,Gundlapalli B.O,516130,BO,Delivery,Y.S.R.,ANDHRA PRADESH,AD,13.91,78.94
Andhra Pradesh Circle,Kurnool Region,Cuddapah Division,Kanchipativandlapalli B.O,516130,BO,Delivery,Y.S.R.,ANDHRA PRADESH,AD,14.01,78.92
Andhra Pradesh Circle,Kurnool Region,Cuddapah Division,Peddabalija Palli B.O,516130,BO,Delivery,Y.S.R.,ANDHRA PRADESH,AD,13.97,78.9
Andhra Pradesh Circle,Kurnool Region,Cuddapah Division,Peddapalli B.O,516130,BO,Delivery,Y.S.R.,ANDHRA PRADESH,AD,14.05,78.91
Andhra Pradesh Circle,Kurnool Region,Cuddapah Division,Thimmasamudram B.O,516130,BO,Delivery,Y.S.R.,ANDHRA PRADESH,AD,13.97,78.92
Andhra Pradesh Circle,Kurnool Region,Cuddapah Division,Pothapi B.O,516151,BO,Delivery,Y.S.R.,ANDHRA PRADESH,AD,14.3394519,79.2368327
Punjab Circle,NA,Patiala Division,SWAI SINGH WALA B.O,147111,BO,Delivery,PATIALA,PUNJAB,PB,30.2204,76.4964
Punjab Circle,NA,Patiala Division,BINJAL B.O,147111,BO,Delivery,PATIALA,PUNJAB,PB,30.1407,76.6146
Assam Circle,DivReportingCircle,Cachar Division,Gharmura Bazar B.O,788162,BO,Delivery,HAILAKANDI,ASSAM,AS,24.55,92.59
Assam Circle,DivReportingCircle,Cachar Division,Gharmura Bus Stand B.O,788162,BO,Delivery,HAILAKANDI,ASSAM,AS,24.55,92.59
Assam Circle,DivReportingCircle,Cachar Division,Algapur PT V B.O,788150,BO,Delivery,HAILAKANDI,ASSAM,AS,24.76,92.59
Assam Circle,DivReportingCircle,Cachar Division,Chandipur B.O,788150,BO,Delivery,HAILAKANDI,ASSAM,AS,24.76,92.59
Assam Circle,DivReportingCircle,Cachar Division,Matirgram B.O,788150,BO,Delivery,HAILAKANDI,ASSAM,AS,24.76,92.59
Assam Circle,DivReportingCircle,Cachar Division,Narainpur North B.O,788801,BO,Delivery,HAILAKANDI,ASSAM,AS,28.61,80.08
Assam Circle,DivReportingCircle,Cachar Division,Polarpar B.O,788801,BO,Delivery,HAILAKANDI,ASSAM,AS,28.61,80.08
Assam Circle,DivReportingCircle,Cachar Division,Alexanderpur B.O,788161,BO,Delivery,HAILAKANDI,ASSAM,AS,24.45,92.55
Assam Circle,DivReportingCircle,Cachar Division,Appin B.O,788161,BO,Delivery,HAILAKANDI,ASSAM,AS,24.45,92.55
Assam Circle,DivReportingCircle,Cachar Division,Dholai Malai B.O,788161,BO,Delivery,HAILAKANDI,ASSAM,AS,24.45,92.55
Assam Circle,DivReportingCircle,Cachar Division,Dholai South B.O,788161,BO,Delivery,HAILAKANDI,ASSAM,AS,24.45,92.55
Assam Circle,DivReportingCircle,Cachar Division,Ratakandi B.O,788152,BO,Delivery,HAILAKANDI,ASSAM,AS,24.08,92.15
Assam Circle,DivReportingCircle,Cachar Division,Uzankupa B.O,788152,BO,Delivery,HAILAKANDI,ASSAM,AS,24.08,92.15
Assam Circle,DivReportingCircle,Cachar Division,Narainpur B.O,788152,BO,Delivery,HAILAKANDI,ASSAM,AS,24.36,92.85
Assam Circle,DivReportingCircle,Cachar Division,Boalipar Bazar B.O,788155,BO,Delivery,HAILAKANDI,ASSAM,AS,24.68,92.56
Assam Circle,DivReportingCircle,Cachar Division,Brojapur B.O,788155,BO,Delivery,HAILAKANDI,ASSAM,AS,24.68,92.56
Assam Circle,DivReportingCircle,Cachar Division,Lakhirbond PT II B.O,788155,BO,Delivery,HAILAKANDI,ASSAM,AS,24.68,92.56
Assam Circle,DivReportingCircle,Cachar Division,Paikan B.O,788155,BO,Delivery,HAILAKANDI,ASSAM,AS,24.68,92.56
Uttar Pradesh Circle,Kanpur Region,Kanpur HO Division,NDC Kanpur,208001,PO,Non Delivery,KANPUR NAGAR,UTTAR PRADESH,UP,NA,NA
Assam Circle,DivReportingCircle,Cachar Division,Mohanpur B.O,788150,BO,Delivery,HAILAKANDI,ASSAM,AS,24.76,92.59
Assam Circle,DivReportingCircle,Cachar Division,Burnibrease T E B.O,788801,BO,Delivery,HAILAKANDI,ASSAM,AS,28.61,80.08
Assam Circle,DivReportingCircle,Cachar Division,Jankibazar B.O,788801,BO,Delivery,HAILAKANDI,ASSAM,AS,28.61,80.08
Assam Circle,DivReportingCircle,Cachar Division,Dinanathpur PT I B.O,788161,BO,Delivery,HAILAKANDI,ASSAM,AS,24.45,92.55
Bihar Circle,"East Region, Bhagalpur",Bhagalpur Division,Akbarnagar BO,812006,BO,Delivery,BHAGALPUR,BIHAR,BR,85.333,25.365
Bihar Circle,"East Region, Bhagalpur",Bhagalpur Division,Bhatoria BO,812006,BO,Delivery,BHAGALPUR,BIHAR,BR,24.365,86.366
Bihar Circle,"East Region, Bhagalpur",Bhagalpur Division,Chaknarayanpur BO,812006,BO,Delivery,BHAGALPUR,BIHAR,BR,85.363,26.363
Bihar Circle,"East Region, Bhagalpur",Bhagalpur Division,Chandrabhanpur BO,812006,BO,Delivery,BHAGALPUR,BIHAR,BR,24.6956,84.3659
Bihar Circle,"East Region, Bhagalpur",Bhagalpur Division,Khaira BO,812006,BO,Delivery,BHAGALPUR,BIHAR,BR,25.222,86.2366
Bihar Circle,"East Region, Bhagalpur",Bhagalpur Division,Kishandaspur amkhoria BO,812006,BO,Delivery,BHAGALPUR,BIHAR,BR,25.332,85.633
Bihar Circle,"East Region, Bhagalpur",Bhagalpur Division,Abhiya bazarBO,853204,BO,Delivery,BHAGALPUR,BIHAR,BR,25.342,87.1397
Bihar Circle,"East Region, Bhagalpur",Bhagalpur Division,Arajpur BO,853204,BO,Delivery,MADHEPURA,BIHAR,BR,25.34256,86.1392
Bihar Circle,"East Region, Bhagalpur",Bhagalpur Division,Baisi jahangira BO,853204,BO,Delivery,BHAGALPUR,BIHAR,BR,25.3422,86.1377
Bihar Circle,"East Region, Bhagalpur",Bhagalpur Division,Bhatgama BO,853204,BO,Delivery,MADHEPURA,BIHAR,BR,26.4272,86.22447
Bihar Circle,"East Region, Bhagalpur",Bhagalpur Division,Gosaigaov BO,853204,BO,Delivery,BHAGALPUR,BIHAR,BR,24.569,86.968
Bihar Circle,"East Region, Bhagalpur",Bhagalpur Division,Jagatpur BO,853204,BO,Delivery,BHAGALPUR,BIHAR,BR,25.3217,87.1774
Bihar Circle,"East Region, Bhagalpur",Bhagalpur Division,Kadwadiara BO,853204,BO,Non Delivery,BHAGALPUR,BIHAR,BR,25.699,86.365
Bihar Circle,"East Region, Bhagalpur",Bhagalpur Division,KHAGRA,853204,BO,Delivery,BHAGALPUR,BIHAR,BR,25.352,87.0612
Bihar Circle,"East Region, Bhagalpur",Bhagalpur Division,Makhatakia BO,853204,BO,Delivery,BHAGALPUR,BIHAR,BR,25.365,86.369
Bihar Circle,"East Region, Bhagalpur",Bhagalpur Division,Maniamore BO,853204,BO,Delivery,BHAGALPUR,BIHAR,BR,24.255,86.365
Bihar Circle,"East Region, Bhagalpur",Bhagalpur Division,NAGRAH BO,853204,BO,Delivery,BHAGALPUR,BIHAR,BR,25.4181,87.1143
Bihar Circle,"East Region, Bhagalpur",Bhagalpur Division,Bakharpur BO,813209,BO,Delivery,BHAGALPUR,BIHAR,BR,25.3295,87.5136
Bihar Circle,"East Region, Bhagalpur",Bhagalpur Division,Barmasia BO,813209,BO,Delivery,BHAGALPUR,BIHAR,BR,25.3219,87.4136
Bihar Circle,"East Region, Bhagalpur",Bhagalpur Division,Duldulia BO,813209,BO,Delivery,BHAGALPUR,BIHAR,BR,86.26455,24.5166
Bihar Circle,"East Region, Bhagalpur",Bhagalpur Division,Kaliprasad BO,813209,BO,Delivery,BHAGALPUR,BIHAR,BR,25.3269,87.4136
Bihar Circle,"East Region, Bhagalpur",Bhagalpur Division,Khawaspur MILKI BO,813209,BO,Delivery,BHAGALPUR,BIHAR,BR,26.2365,87.3959
Bihar Circle,"East Region, Bhagalpur",Bhagalpur Division,Moultola BO,813209,BO,Delivery,BHAGALPUR,BIHAR,BR,26.2475,87.3979
Bihar Circle,"East Region, Bhagalpur",Bhagalpur Division,Narayanpur BO,813209,BO,Delivery,BHAGALPUR,BIHAR,BR,86.26455,24.75533
Bihar Circle,"East Region, Bhagalpur",Bhagalpur Division,Parshurampur BO,813209,BO,Delivery,BHAGALPUR,BIHAR,BR,25.9232,85.01946
Bihar Circle,"East Region, Bhagalpur",Bhagalpur Division,Pirpainti Bazar BO,813209,BO,Delivery,BHAGALPUR,BIHAR,BR,25.3224,87.4309
Bihar Circle,"East Region, Bhagalpur",Bhagalpur Division,Raghunitola BO,853205,BO,Delivery,BHAGALPUR,BIHAR,BR,24.069,86.239
Bihar Circle,"East Region, Bhagalpur",Bhagalpur Division,Mamallkha BO,813210,BO,Delivery,BHAGALPUR,BIHAR,BR,24.2016,86.214
Bihar Circle,"East Region, Bhagalpur",Bhagalpur Division,Parghari BO,813210,BO,Delivery,BHAGALPUR,BIHAR,BR,25.308,87.201
Bihar Circle,"East Region, Bhagalpur",Bhagalpur Division,Pithna BO,813210,BO,Delivery,BHAGALPUR,BIHAR,BR,24.289,87.208
Bihar Circle,"East Region, Bhagalpur",Bhagalpur Division,Kiranpur BO,813108,BO,Delivery,BHAGALPUR,BIHAR,BR,86.65224,24.75533
Bihar Circle,"East Region, Bhagalpur",Bhagalpur Division,Kushmaha BO,813108,BO,Delivery,BANKA,BIHAR,BR,24.35,84.358
Bihar Circle,"East Region, Bhagalpur",Bhagalpur Division,Laxmipur Chiraya BO,813108,BO,Delivery,BANKA,BIHAR,BR,86.26455,24.7553
Bihar Circle,"East Region, Bhagalpur",Bhagalpur Division,Panchrukhi Bazar BO,813108,BO,Delivery,BHAGALPUR,BIHAR,BR,24.9237,86.9325
Bihar Circle,"East Region, Bhagalpur",Bhagalpur Division,Rataupur Maikpur BO,813108,BO,Delivery,BHAGALPUR,BIHAR,BR,24.9337,86.9695
Telangana Circle,Hyderabad Region,Nizamabad Division,Mogha B.O,503309,BO,Delivery,KAMAREDDY,TELANGANA,TS,18.4952366,77.6680116
Telangana Circle,Hyderabad Region,Nizamabad Division,KODCHERA B.O,503309,BO,Delivery,KAMAREDDY,TELANGANA,TS,18.4416098,77.6221275
Telangana Circle,Hyderabad Region,Nizamabad Division,Chinnur B.O,503108,BO,Delivery,KAMAREDDY,TELANGANA,TS,18.0959539,78.12191
Telangana Circle,Hyderabad Region,Nizamabad Division,Pocharam B.O,503108,BO,Delivery,KAMAREDDY,TELANGANA,TS,18.1138237,78.1712936
Telangana Circle,Hyderabad Region,Nizamabad Division,Shetpalli B.O,503108,BO,Delivery,KAMAREDDY,TELANGANA,TS,18.1089555,78.1281076
Telangana Circle,Hyderabad Region,Nizamabad Division,Mallur B.O,503302,BO,Delivery,KAMAREDDY,TELANGANA,TS,18.2298028,77.9355044
Telangana Circle,Hyderabad Region,Nizamabad Division,Kodapkal Kalan B.O,503310,BO,Delivery,KAMAREDDY,TELANGANA,TS,18.2892081,77.7583006
Telangana Circle,Hyderabad Region,Nizamabad Division,Kodapkal Khurd B.O,503310,BO,Delivery,KAMAREDDY,TELANGANA,TS,18.2598359,77.7984784
Telangana Circle,Hyderabad Region,Nizamabad Division,Kotaipalli B.O,503310,BO,Delivery,KAMAREDDY,TELANGANA,TS,18.3072385,77.7833154
Telangana Circle,Hyderabad Region,Nizamabad Division,Thimmanagar B.O,503310,BO,Delivery,KAMAREDDY,TELANGANA,TS,18.2053774,77.803566
Telangana Circle,Hyderabad Region,Nizamabad Division,Annaramkalan B.O,503310,BO,Delivery,KAMAREDDY,TELANGANA,TS,18.2639486,77.8523308
Telangana Circle,Hyderabad Region,Nizamabad Division,Gundaram B.O,503110,BO,Delivery,KAMAREDDY,TELANGANA,TS,18.171855,78.25187
Telangana Circle,Hyderabad Region,Nizamabad Division,Kondapur B.O,503110,BO,Delivery,KAMAREDDY,TELANGANA,TS,18.1911816,78.2794166
Telangana Circle,Hyderabad Region,Nizamabad Division,Kalwaral B.O,503145,BO,Delivery,KAMAREDDY,TELANGANA,TS,18.44509,78.240281
Telangana Circle,Hyderabad Region,Nizamabad Division,Bhoompalli B.O,503145,BO,Delivery,KAMAREDDY,TELANGANA,TS,18.4101118,78.2721116
Telangana Circle,Hyderabad Region,Nizamabad Division,Kupriyal B.O,503145,BO,Delivery,KAMAREDDY,TELANGANA,TS,18.3661903,78.2836704
Telangana Circle,Hyderabad Region,Nizamabad Division,Endriyal B.O,503120,BO,Delivery,KAMAREDDY,TELANGANA,TS,18.2792248,78.2341277
Telangana Circle,Hyderabad Region,Nizamabad Division,Boregaon B.O,503235,BO,Delivery,NIZAMABAD,TELANGANA,TS,18.7618413,77.9210267
Telangana Circle,Hyderabad Region,Nizamabad Division,Hangarga B.O,503235,BO,Delivery,NIZAMABAD,TELANGANA,TS,18.7918788,77.8730326
Telangana Circle,Hyderabad Region,Nizamabad Division,Kandagaon B.O,503235,BO,Delivery,NIZAMABAD,TELANGANA,TS,18.7458966,77.947735
Telangana Circle,Hyderabad Region,Nizamabad Division,Neela B.O,503235,BO,Delivery,NIZAMABAD,TELANGANA,TS,18.7458966,77.947735
Telangana Circle,Hyderabad Region,Nizamabad Division,Kistapur B.O,503321,BO,Delivery,KAMAREDDY,TELANGANA,TS,18.4491407,77.8153681
Telangana Circle,Hyderabad Region,Nizamabad Division,Sangam B.O,503185,BO,Delivery,NIZAMABAD,TELANGANA,TS,18.6010736,77.9141242
Telangana Circle,Hyderabad Region,Nizamabad Division,Hansa B.O,503185,BO,Delivery,NIZAMABAD,TELANGANA,TS,18.6680476,77.7787256
Telangana Circle,Hyderabad Region,Nizamabad Division,Jadijamalpur B.O,503185,BO,Delivery,NIZAMABAD,TELANGANA,TS,18.701231,77.8537928
Telangana Circle,Hyderabad Region,Nizamabad Division,Mavandikalan B.O,503185,BO,Delivery,NIZAMABAD,TELANGANA,TS,18.7154871,77.8797369
Telangana Circle,Hyderabad Region,Nizamabad Division,Bardipur B.O,503230,BO,Delivery,NIZAMABAD,TELANGANA,TS,18.647018,78.133392
Telangana Circle,Hyderabad Region,Nizamabad Division,Mahabub Farm B.O,503202,BO,Delivery,NIZAMABAD,TELANGANA,TS,18.6937116,78.052145
Telangana Circle,Hyderabad Region,Nizamabad Division,Mangalpahad B.O,503202,BO,Delivery,NIZAMABAD,TELANGANA,TS,18.6937116,78.052145
Telangana Circle,Hyderabad Region,Nizamabad Division,Ashok Farm B.O,503246,BO,Delivery,NIZAMABAD,TELANGANA,TS,18.8111298,78.0629922
Telangana Circle,Hyderabad Region,Nizamabad Division,Chikli B.O,503246,BO,Delivery,NIZAMABAD,TELANGANA,TS,18.8243042,78.0683075
Telangana Circle,Hyderabad Region,Nizamabad Division,Gandhinagar B.O,503246,BO,Delivery,NIZAMABAD,TELANGANA,TS,18.8054964,78.0428765
Telangana Circle,Hyderabad Region,Nizamabad Division,Kolas  B.O,503305,BO,Delivery,KAMAREDDY,TELANGANA,TS,18.33335,77.6983916
Telangana Circle,Hyderabad Region,Nizamabad Division,Shantapur B.O,503305,BO,Delivery,KAMAREDDY,TELANGANA,TS,18.3295916,77.7315616
Andhra Pradesh Circle,Kurnool Region,Anantapur Division,Nelagonda B.O,515842,BO,Delivery,ANANTAPUR,ANDHRA PRADESH,AD,15.65,77.45
Andhra Pradesh Circle,Kurnool Region,Anantapur Division,Kasapuram B.O,515803,BO,Delivery,ANANTAPUR,ANDHRA PRADESH,AD,14.68,77.66
Uttar Pradesh Circle,Gorakhpur Region,Gorakhpur Division,NDC Gorakhpur,273001,PO,Non Delivery,GORAKHPUR,UTTAR PRADESH,UP,26.7606,83.3732
Telangana Circle,Hyderabad Region,Peddapalli Division,Gollapalli B.O,505186,BO,Delivery,PEDDAPALLI,TELANGANA,TS,18.4676183,79.2467683
Telangana Circle,Hyderabad Region,Peddapalli Division,Ithrajpalle B.O,505186,BO,Delivery,PEDDAPALLI,TELANGANA,TS,18.5116556,79.2236202
Telangana Circle,Hyderabad Region,Peddapalli Division,Bonthakuntapalli B.O,505186,BO,Delivery,PEDDAPALLI,TELANGANA,TS,18.4948966,79.2676577
Telangana Circle,Hyderabad Region,Peddapalli Division,Gangaram B.O,505153,BO,Delivery,PEDDAPALLI,TELANGANA,TS,18.463131,79.5066198
Telangana Circle,Hyderabad Region,Peddapalli Division,Keshanpalli B.O,505153,BO,Delivery,PEDDAPALLI,TELANGANA,TS,18.4321487,79.494105
Telangana Circle,Hyderabad Region,Peddapalli Division,Moolasala B.O,505162,BO,Delivery,PEDDAPALLI,TELANGANA,TS,18.5451295,79.4288607
Telangana Circle,Hyderabad Region,Peddapalli Division,Regadi Maddikunta B.O,505162,BO,Delivery,PEDDAPALLI,TELANGANA,TS,18.5095705,79.3828487
Telangana Circle,Hyderabad Region,Peddapalli Division,Madaka B.O,505152,BO,Delivery,PEDDAPALLI,TELANGANA,TS,18.4244906,79.4309151
Telangana Circle,Hyderabad Region,Peddapalli Division,Gumpula B.O,505152,BO,Delivery,PEDDAPALLI,TELANGANA,TS,18.4098826,79.5211359
Telangana Circle,Hyderabad Region,Peddapalli Division,Odela B.O,505152,BO,Delivery,PEDDAPALLI,TELANGANA,TS,18.4540369,79.4475796
Telangana Circle,Hyderabad Region,Peddapalli Division,Kukkalagudur B.O,505514,BO,Delivery,PEDDAPALLI,TELANGANA,TS,18.7727901,79.3054696
Telangana Circle,Hyderabad Region,Peddapalli Division,Mudrial B.O,505514,BO,Delivery,PEDDAPALLI,TELANGANA,TS,18.783348,79.3229419
Telangana Circle,Hyderabad Region,Peddapalli Division,Murmur B.O,505514,BO,Delivery,PEDDAPALLI,TELANGANA,TS,18.8216837,79.4019076
Telangana Circle,Hyderabad Region,Peddapalli Division,Dongathurthi B.O,505187,BO,Delivery,PEDDAPALLI,TELANGANA,TS,18.6941516,79.2989033
Telangana Circle,Hyderabad Region,Peddapalli Division,Kannal B.O,505187,BO,Delivery,PEDDAPALLI,TELANGANA,TS,18.693075,79.427375
Telangana Circle,Hyderabad Region,Peddapalli Division,Palakurthy B.O,505187,BO,Delivery,PEDDAPALLI,TELANGANA,TS,18.7187683,79.3812483
Telangana Circle,Hyderabad Region,Peddapalli Division,Lakkaram B.O,505212,BO,Delivery,PEDDAPALLI,TELANGANA,TS,18.5670611,79.5783635
Telangana Circle,Hyderabad Region,Peddapalli Division,Maidambanda B.O,505212,BO,Delivery,PEDDAPALLI,TELANGANA,TS,18.6308454,79.5736787
Telangana Circle,Hyderabad Region,Peddapalli Division,Kothur B.O,505525,BO,Delivery,PEDDAPALLI,TELANGANA,TS,18.5838484,79.2742354
Telangana Circle,Hyderabad Region,Peddapalli Division,Sivapalli B.O,505525,BO,Delivery,PEDDAPALLI,TELANGANA,TS,18.5231895,79.2752419
Telangana Circle,Hyderabad Region,Peddapalli Division,Venkatraopalli B.O,505525,BO,Delivery,PEDDAPALLI,TELANGANA,TS,18.5298987,79.2367387
Telangana Circle,Hyderabad Region,Peddapalli Division,Sundilla B.O,505209,BO,Delivery,PEDDAPALLI,TELANGANA,TS,18.7689283,79.5234681
Telangana Circle,Hyderabad Region,Peddapalli Division,Jangaon B.O,505209,BO,Delivery,PEDDAPALLI,TELANGANA,TS,18.7832158,79.4812184
Telangana Circle,Hyderabad Region,Peddapalli Division,Maredpak B.O,505209,BO,Delivery,PEDDAPALLI,TELANGANA,TS,18.6852945,79.5193409
Telangana Circle,Hyderabad Region,Peddapalli Division,Julapalli B.O,505188,BO,Delivery,PEDDAPALLI,TELANGANA,TS,18.6673368,79.514244
Telangana Circle,Hyderabad Region,Peddapalli Division,Rangapuram B.O,505188,BO,Delivery,PEDDAPALLI,TELANGANA,TS,18.6681544,79.4216846
Telangana Circle,Hyderabad Region,Peddapalli Division,Mukdampur B.O,505186,BO,Delivery,KARIMNAGAR,TELANGANA,TS,18.4729098,79.2167847
Telangana Circle,Hyderabad Region,Peddapalli Division,Mallial B.O,505122,BO,Delivery,KARIMNAGAR,TELANGANA,TS,18.2584516,79.5357133
Telangana Circle,Hyderabad Region,Peddapalli Division,Kanikulagidda B.O,505498,BO,Delivery,KARIMNAGAR,TELANGANA,TS,18.1982602,79.4410683
Telangana Circle,Hyderabad Region,Peddapalli Division,Yellabotharam B.O,505498,BO,Delivery,KARIMNAGAR,TELANGANA,TS,18.2069835,79.368333
Telangana Circle,Hyderabad Region,Peddapalli Division,Sirsapalli B.O,505498,BO,Delivery,KARIMNAGAR,TELANGANA,TS,18.2421096,79.4142865
Assam Circle,DivReportingCircle,Cachar Division,Katlacherra Bazar B.O,788161,BO,Non Delivery,HAILAKANDI,ASSAM,AS,24.45,92.55
Assam Circle,DivReportingCircle,Cachar Division,Telkatta B.O,788161,BO,Delivery,HAILAKANDI,ASSAM,AS,24.45,92.55
Andhra Pradesh Circle,Vijayawada Region,Gudur Division,VIKRAMASIMHAPURI UNIVERSITY SO,524324,PO,Delivery,SPSR NELLORE,ANDHRA PRADESH,AD,NA,NA
Telangana Circle,Hyderabad City Region,Secunderabad Division,Yadgarpalli B.O,501301,BO,Delivery,MEDCHAL MALKAJGIRI,TELANGANA,TS,NA,NA
Telangana Circle,Hyderabad City Region,Secunderabad Division,Korremal B.O,500088,BO,Delivery,MEDCHAL MALKAJGIRI,TELANGANA,TS,NA,NA
Telangana Circle,Hyderabad City Region,Secunderabad Division,Pratapsingaram B.O,500088,BO,Delivery,MEDCHAL MALKAJGIRI,TELANGANA,TS,NA,NA
Telangana Circle,Hyderabad City Region,Secunderabad Division,Pochampally B.O,500100,BO,Delivery,MEDCHAL MALKAJGIRI,TELANGANA,TS,NA,NA
Telangana Circle,Hyderabad City Region,Secunderabad Division,CMR College  B.O,501401,BO,Delivery,MEDCHAL MALKAJGIRI,TELANGANA,TS,NA,NA
Telangana Circle,Hyderabad City Region,Secunderabad Division,Porur B.O,501102,BO,Delivery,VIKARABAD,TELANGANA,TS,NA,NA
Telangana Circle,Hyderabad City Region,Secunderabad Division,Aliabad B.O,500101,BO,Delivery,MEDCHAL MALKAJGIRI,TELANGANA,TS,NA,NA
Telangana Circle,Hyderabad City Region,Secunderabad Division,Anantaram B.O,500101,BO,Delivery,MEDCHAL MALKAJGIRI,TELANGANA,TS,NA,NA
Telangana Circle,Hyderabad City Region,Secunderabad Division,BITS B.O,500078,BO,Delivery,MEDCHAL MALKAJGIRI,TELANGANA,TS,NA,NA
Telangana Circle,Hyderabad City Region,Hyderabad South East Division,Toolkalan B.O,501509,BO,Delivery,RANGA REDDY,TELANGANA,TS,NA,NA
Telangana Circle,Hyderabad City Region,Secunderabad Division,Ankireddipalli B.O,501301,BO,Delivery,MEDCHAL MALKAJGIRI,TELANGANA,TS,NA,NA
Telangana Circle,Hyderabad City Region,Secunderabad Division,Thimmaipalli B.O,501301,BO,Delivery,MEDCHAL MALKAJGIRI,TELANGANA,TS,NA,NA
Telangana Circle,Hyderabad City Region,Secunderabad Division,Venkatadri B.O,500088,BO,Delivery,MEDCHAL MALKAJGIRI,TELANGANA,TS,NA,NA
Telangana Circle,Hyderabad City Region,Secunderabad Division,Dindigul B.O,500043,BO,Delivery,MEDCHAL MALKAJGIRI,TELANGANA,TS,NA,NA
Telangana Circle,Hyderabad City Region,Secunderabad Division,Srirangavaram B.O,500043,BO,Delivery,MEDCHAL MALKAJGIRI,TELANGANA,TS,NA,NA
Telangana Circle,Hyderabad City Region,Secunderabad Division,Jawahar Nagar B.O,500087,BO,Non Delivery,MEDCHAL MALKAJGIRI,TELANGANA,TS,NA,NA
Telangana Circle,Hyderabad City Region,Secunderabad Division,Athveli B.O,501401,BO,Delivery,MEDCHAL MALKAJGIRI,TELANGANA,TS,NA,NA
Telangana Circle,Hyderabad City Region,Secunderabad Division,Rajbolaram B.O,501401,BO,Delivery,MEDCHAL MALKAJGIRI,TELANGANA,TS,NA,NA
Telangana Circle,Hyderabad City Region,Secunderabad Division,Bomraspet B.O,500078,BO,Delivery,MEDCHAL MALKAJGIRI,TELANGANA,TS,NA,NA
Telangana Circle,Hyderabad City Region,Secunderabad Division,Jaggamguda B.O,500101,BO,Delivery,MEDCHAL MALKAJGIRI,TELANGANA,TS,NA,NA
Telangana Circle,Hyderabad City Region,Secunderabad Division,Mudchintanapalli B.O,500101,BO,Delivery,MEDCHAL MALKAJGIRI,TELANGANA,TS,NA,NA
Telangana Circle,Hyderabad City Region,Hyderabad South East Division,Munaganur S.O,501505,PO,Non Delivery,RANGA REDDY,TELANGANA,TS,17.301362,78.60885
Telangana Circle,Hyderabad City Region,Secunderabad Division,Bogaram B.O,501301,BO,Delivery,MEDCHAL MALKAJGIRI,TELANGANA,TS,NA,NA
Telangana Circle,Hyderabad City Region,Secunderabad Division,Cherlapalli B.O,501301,BO,Delivery,MEDCHAL MALKAJGIRI,TELANGANA,TS,NA,NA
Telangana Circle,Hyderabad City Region,Secunderabad Division,Edulabad B.O,501301,BO,Delivery,MEDCHAL MALKAJGIRI,TELANGANA,TS,NA,NA
Telangana Circle,Hyderabad City Region,Secunderabad Division,Keesara B.O,501301,BO,Delivery,MEDCHAL MALKAJGIRI,TELANGANA,TS,NA,NA
Telangana Circle,Hyderabad City Region,Secunderabad Division,Keesaragutta B.O,501301,BO,Delivery,MEDCHAL MALKAJGIRI,TELANGANA,TS,NA,NA
Telangana Circle,Hyderabad City Region,Secunderabad Division,Katchavanisingaram B.O,500088,BO,Delivery,MEDCHAL MALKAJGIRI,TELANGANA,TS,NA,NA
Telangana Circle,Hyderabad City Region,Secunderabad Division,Bahadurpalli B.O,500043,BO,Delivery,MEDCHAL MALKAJGIRI,TELANGANA,TS,NA,NA
Telangana Circle,Hyderabad City Region,Secunderabad Division,Gajularamaram B.O,500055,BO,Delivery,MEDCHAL MALKAJGIRI,TELANGANA,TS,NA,NA
Bihar Circle,"East Region, Bhagalpur",Bhagalpur Division,Sahjadpur BO,813108,BO,Delivery,BHAGALPUR,BIHAR,BR,86.65224,24.85533
Bihar Circle,"East Region, Bhagalpur",Bhagalpur Division,Samastipur BO,813108,BO,Delivery,BHAGALPUR,BIHAR,BR,25.8265,85.7876
Bihar Circle,"East Region, Bhagalpur",Bhagalpur Division,RANGA BO,813207,BO,Delivery,BANKA,BIHAR,BR,24.9325,86.6762
Bihar Circle,"East Region, Bhagalpur",Bhagalpur Division,PARMANANDPUR ITWA,813207,BO,Delivery,BANKA,BIHAR,BR,24.9658,86.4728
Bihar Circle,"East Region, Bhagalpur",Bhagalpur Division,Pair BO,813110,BO,Delivery,BANKA,BIHAR,BR,87.0948,24.85533
Bihar Circle,"East Region, Bhagalpur",Bhagalpur Division,Raugaon BO,813110,BO,Delivery,BANKA,BIHAR,BR,25.358,86.239
Bihar Circle,"East Region, Bhagalpur",Bhagalpur Division,Chandadih BO,813109,BO,Delivery,BANKA,BIHAR,BR,24.207,86.259
Bihar Circle,"East Region, Bhagalpur",Bhagalpur Division,Manjhoni BO,813109,BO,Delivery,BANKA,BIHAR,BR,24.368,84.358
Bihar Circle,"East Region, Bhagalpur",Bhagalpur Division,Shreepathas BO,813109,BO,Delivery,BANKA,BIHAR,BR,86.65224,24.15468
Bihar Circle,"East Region, Bhagalpur",Bhagalpur Division,Vijayhat BO,813109,BO,Delivery,BANKA,BIHAR,BR,24.029,86.297
Bihar Circle,"East Region, Bhagalpur",Bhagalpur Division,Morma BO,813107,BO,Delivery,BANKA,BIHAR,BR,24.201,86.248
Bihar Circle,"East Region, Bhagalpur",Bhagalpur Division,Ranjodha BO,813107,BO,Delivery,BANKA,BIHAR,BR,25.267,84.357
Bihar Circle,"East Region, Bhagalpur",Bhagalpur Division,Belarimilki BO,813211,BO,Delivery,BANKA,BIHAR,BR,25.0598,86.8389
Bihar Circle,"East Region, Bhagalpur",Bhagalpur Division,Chutia BO,813211,BO,Delivery,BANKA,BIHAR,BR,25.0804,86.7303
Bihar Circle,"East Region, Bhagalpur",Bhagalpur Division,Kaitha BO,813211,BO,Delivery,BANKA,BIHAR,BR,25.0804,86.7303
Bihar Circle,"East Region, Bhagalpur",Bhagalpur Division,Kumarpur BO,813211,BO,Delivery,BANKA,BIHAR,BR,25.0804,86.0303
Andhra Pradesh Circle,Vijayawada Region,Narasaraopet Division,Chittapuram B.O,522658,BO,Delivery,GUNTUR,ANDHRA PRADESH,AD,16.2061,79.802
Andhra Pradesh Circle,Vijayawada Region,Narasaraopet Division,Udjerla B.O,522658,BO,Delivery,GUNTUR,ANDHRA PRADESH,AD,16.2193,79.7533
Andhra Pradesh Circle,Vijayawada Region,Narasaraopet Division,Mellavagu B.O,522614,BO,Delivery,GUNTUR,ANDHRA PRADESH,AD,16.3455,79.7379
Andhra Pradesh Circle,Vijayawada Region,Narasaraopet Division,Petasannegandla B.O,522614,BO,Delivery,GUNTUR,ANDHRA PRADESH,AD,16.419,79.7497
Andhra Pradesh Circle,Vijayawada Region,Narasaraopet Division,Voppicherla B.O,522614,BO,Delivery,GUNTUR,ANDHRA PRADESH,AD,16.443,79.6967
Andhra Pradesh Circle,Vijayawada Region,Narasaraopet Division,Ayyannapalem B.O,522614,BO,Delivery,GUNTUR,ANDHRA PRADESH,AD,16.345,79.637
Bihar Circle,"East Region, Bhagalpur",Bhagalpur Division,Lagma BO,813222,BO,Delivery,BHAGALPUR,BIHAR,BR,24.921,84.213
Bihar Circle,"East Region, Bhagalpur",Bhagalpur Division,Rampur BO,813222,BO,Delivery,BHAGALPUR,BIHAR,BR,24.6326,84.62356
Bihar Circle,"East Region, Bhagalpur",Bhagalpur Division,Danda Bazar BO,812005,BO,Delivery,BHAGALPUR,BIHAR,BR,25.143531,87.020569
Bihar Circle,"East Region, Bhagalpur",Bhagalpur Division,Kajraili BO,812005,BO,Delivery,BHAGALPUR,BIHAR,BR,25.1536244,86.9342411
Bihar Circle,"East Region, Bhagalpur",Bhagalpur Division,Khiribandha BO,812005,BO,Delivery,BHAGALPUR,BIHAR,BR,25.2496944,86.9869722
Bihar Circle,"East Region, Bhagalpur",Bhagalpur Division,Harnathpur BO,812006,BO,Delivery,BHAGALPUR,BIHAR,BR,25.211,86.988
Bihar Circle,"East Region, Bhagalpur",Bhagalpur Division,Pratapnager BO,853204,BO,Delivery,BHAGALPUR,BIHAR,BR,25.3241,87.0712
Bihar Circle,"East Region, Bhagalpur",Bhagalpur Division,Rangra BO,853204,BO,Delivery,BHAGALPUR,BIHAR,BR,25.3808,87.2135
Bihar Circle,"East Region, Bhagalpur",Bhagalpur Division,Sadhwa BO,853204,BO,Delivery,BHAGALPUR,BIHAR,BR,25.3908,87.2195
Bihar Circle,"East Region, Bhagalpur",Bhagalpur Division,Tetripakra BO,853204,BO,Delivery,BHAGALPUR,BIHAR,BR,24.148,85.248
Bihar Circle,"East Region, Bhagalpur",Bhagalpur Division,Sarkanda BO,813209,BO,Delivery,BHAGALPUR,BIHAR,BR,25.2231,87.4361
Bihar Circle,"East Region, Bhagalpur",Bhagalpur Division,Srimatpur BO,813209,BO,Delivery,BHAGALPUR,BIHAR,BR,25.2232,87.4321
Bihar Circle,"East Region, Bhagalpur",Bhagalpur Division,Jotgobind BO,853205,BO,Delivery,BHAGALPUR,BIHAR,BR,25.555,86.369
Bihar Circle,"East Region, Bhagalpur",Bhagalpur Division,Kamlakund BO,853205,BO,Delivery,BHAGALPUR,BIHAR,BR,24.0364,86.0236
Rajasthan Circle,Jodhpur Region,Barmer Division,Kerawa B.O,344011,BO,Delivery,BARMER,RAJASTHAN,RJ,25.89007,71.150607
Rajasthan Circle,Jodhpur Region,Jodhpur Division,Paldi Khichiyan,342304,BO,Delivery,JODHPUR,RAJASTHAN,RJ,26.405837,73.010046
Punjab Circle,Punjab West Region,Faridkot Division,Smalsar S.O,142049,PO,Delivery,MOGA,PUNJAB,PB,30.6389875,74.9985706
Telangana Circle,Hyderabad Region,Nizamabad Division,Jillapalli B.O,503207,BO,Delivery,NIZAMABAD,TELANGANA,TS,18.5509461,77.7873264
Telangana Circle,Hyderabad Region,Nizamabad Division,Pothangal B.O,503207,BO,Delivery,NIZAMABAD,TELANGANA,TS,18.5672599,77.7721273
Bihar Circle,"East Region, Bhagalpur",Begusarai Division,Papraur BO,851210,BO,Delivery,BEGUSARAI,BIHAR,BR,25.416675,86.129379
Bihar Circle,"East Region, Bhagalpur",Begusarai Division,Maheswara BO,851127,BO,Delivery,BEGUSARAI,BIHAR,BR,25.416675,86.129379
Bihar Circle,"East Region, Bhagalpur",Begusarai Division,Muzaffara BO,851127,BO,Delivery,BEGUSARAI,BIHAR,BR,25.416675,86.129379
Andhra Pradesh Circle,Vijayawada Region,Bhimavaram Division,Gollavanitippa B.O,534239,BO,Delivery,WEST GODAVARI,ANDHRA PRADESH,AD,16.467452,81.509242
Andhra Pradesh Circle,Vijayawada Region,Bhimavaram Division,Losari gutlapadu B.O,534239,BO,Delivery,WEST GODAVARI,ANDHRA PRADESH,AD,16.412996,81.47315
Andhra Pradesh Circle,Vijayawada Region,Bhimavaram Division,Tokatippa B.O,534239,BO,Delivery,WEST GODAVARI,ANDHRA PRADESH,AD,16.424421,81.479646
Andhra Pradesh Circle,Vijayawada Region,Bhimavaram Division,Doddanapudi B.O,534237,BO,Delivery,WEST GODAVARI,ANDHRA PRADESH,AD,16.526313,81.396005
Andhra Pradesh Circle,Vijayawada Region,Bhimavaram Division,Kallakuru B.O,534237,BO,Delivery,WEST GODAVARI,ANDHRA PRADESH,AD,16.52828,81.383245
Andhra Pradesh Circle,Vijayawada Region,Bhimavaram Division,Kolanapalli B.O,534237,BO,Delivery,WEST GODAVARI,ANDHRA PRADESH,AD,16.546825,81.40798
Andhra Pradesh Circle,Vijayawada Region,Bhimavaram Division,Panjavemavaram B.O,534247,BO,Delivery,WEST GODAVARI,ANDHRA PRADESH,AD,16.577316,81.645632
Andhra Pradesh Circle,Vijayawada Region,Bhimavaram Division,Tokalapudi B.O,534247,BO,Delivery,WEST GODAVARI,ANDHRA PRADESH,AD,16.565716,81.629877
Andhra Pradesh Circle,Vijayawada Region,Bhimavaram Division,Toleru B.O,534247,BO,Delivery,WEST GODAVARI,ANDHRA PRADESH,AD,16.579799,81.623096
Andhra Pradesh Circle,Vijayawada Region,Bhimavaram Division,Annavaram B.O,534202,BO,Delivery,WEST GODAVARI,ANDHRA PRADESH,AD,16.545316,81.513696
Andhra Pradesh Circle,Vijayawada Region,Bhimavaram Division,Gollalakoderu B.O,534202,BO,Delivery,WEST GODAVARI,ANDHRA PRADESH,AD,16.587004,81.532901
Andhra Pradesh Circle,Vijayawada Region,Bhimavaram Division,Taderu B.O,534202,BO,Delivery,WEST GODAVARI,ANDHRA PRADESH,AD,16.515868,81.543873
Andhra Pradesh Circle,Vijayawada Region,Bhimavaram Division,Dusanapudi B.O,534243,BO,Delivery,WEST GODAVARI,ANDHRA PRADESH,AD,16.515402,81.595626
Andhra Pradesh Circle,Vijayawada Region,Bhimavaram Division,Perkipalem B.O,534243,BO,Delivery,WEST GODAVARI,ANDHRA PRADESH,AD,16.546978,81.610426
Andhra Pradesh Circle,Vijayawada Region,Bhimavaram Division,Nandamurugaruvu B.O,534243,BO,Delivery,WEST GODAVARI,ANDHRA PRADESH,AD,16.538866,81.606932
Andhra Pradesh Circle,Vijayawada Region,Bhimavaram Division,Kalisipudi B.O,534199,BO,Delivery,WEST GODAVARI,ANDHRA PRADESH,AD,16.579162,81.430645
Bihar Circle,"East Region, Bhagalpur",Begusarai Division,Sonihar BO,848201,BO,Delivery,BEGUSARAI,BIHAR,BR,25.416675,86.129379
Andhra Pradesh Circle,Vijayawada Region,Bhimavaram Division,Uradallapalem LWE B.O,534134,BO,Delivery,WEST GODAVARI,ANDHRA PRADESH,AD,16.7,81.59
Telangana Circle,Hyderabad City Region,Sangareddy Division,Pulkal B.O,502293,BO,Delivery,SANGAREDDY,TELANGANA,TS,NA,NA
Telangana Circle,Hyderabad City Region,Sangareddy Division,IIT HYDERABAD SO,502284,PO,Delivery,SANGAREDDY,TELANGANA,TS,17.59,78.12
Bihar Circle,"East Region, Bhagalpur",Munger Division,Dadri BO,813212,BO,Delivery,MUNGER,BIHAR,BR,86.152,24.548
Bihar Circle,"East Region, Bhagalpur",Begusarai Division,Gaura BO,851113,BO,Delivery,BEGUSARAI,BIHAR,BR,25.416675,86.129379
Bihar Circle,"East Region, Bhagalpur",Begusarai Division,Chamtha BO,851111,BO,Delivery,BEGUSARAI,BIHAR,BR,25.416675,86.129379
Bihar Circle,"East Region, Bhagalpur",Begusarai Division,Kaidrabad BO,851111,BO,Delivery,BEGUSARAI,BIHAR,BR,25.416675,86.129379
Bihar Circle,"East Region, Bhagalpur",Begusarai Division,Lodiyahi BO,851111,BO,Delivery,BEGUSARAI,BIHAR,BR,25.416675,86.129379
Bihar Circle,"East Region, Bhagalpur",Begusarai Division,Rani BO,851111,BO,Delivery,BEGUSARAI,BIHAR,BR,25.416675,86.129379
Bihar Circle,"East Region, Bhagalpur",Begusarai Division,Rudauli BO,851111,BO,Delivery,BEGUSARAI,BIHAR,BR,25.416675,86.129379
Bihar Circle,"East Region, Bhagalpur",Begusarai Division,Rupasbaj BO,851111,BO,Delivery,BEGUSARAI,BIHAR,BR,25.416675,86.129379
Bihar Circle,"East Region, Bhagalpur",Begusarai Division,Samsipur Bhith BO,851111,BO,Delivery,BEGUSARAI,BIHAR,BR,25.416675,86.129379
Bihar Circle,"East Region, Bhagalpur",Begusarai Division,Nonpur BO,851112,BO,Delivery,BEGUSARAI,BIHAR,BR,25.5000532,86.0402129
Bihar Circle,"East Region, Bhagalpur",Begusarai Division,Pasopur BO,851112,BO,Delivery,BEGUSARAI,BIHAR,BR,25.5329089,85.9981238
Bihar Circle,"East Region, Bhagalpur",Begusarai Division,Sahuri BO,851112,BO,Delivery,BEGUSARAI,BIHAR,BR,25.7379369,85.1510105
Telangana Circle,Hyderabad Region,Nizamabad Division,Ankole B.O,503301,BO,Delivery,KAMAREDDY,TELANGANA,TS,18.4539589,77.877045
Telangana Circle,Hyderabad Region,Nizamabad Division,Bomandevpalli B.O,503301,BO,Delivery,KAMAREDDY,TELANGANA,TS,18.4703804,77.8825672
Telangana Circle,Hyderabad Region,Nizamabad Division,Nachapalli B.O,503301,BO,Delivery,KAMAREDDY,TELANGANA,TS,18.4494355,77.8788242
Telangana Circle,Hyderabad Region,Nizamabad Division,Govur B.O,503206,BO,Delivery,NIZAMABAD,TELANGANA,TS,18.5981949,77.94845
Telangana Circle,Hyderabad Region,Nizamabad Division,Humnapur B.O,503206,BO,Delivery,NIZAMABAD,TELANGANA,TS,18.5663666,77.9188366
Telangana Circle,Hyderabad Region,Nizamabad Division,Malkapoor B.O,503206,BO,Delivery,NIZAMABAD,TELANGANA,TS,18.5998553,77.9993976
Telangana Circle,Hyderabad Region,Nizamabad Division,Lakshmikisan Farm B.O,503245,BO,Delivery,NIZAMABAD,TELANGANA,TS,18.7942533,77.9778283
Telangana Circle,Hyderabad Region,Nizamabad Division,Mokanpalli B.O,503245,BO,Delivery,NIZAMABAD,TELANGANA,TS,18.76392,78.0553816
Telangana Circle,Hyderabad Region,Nizamabad Division,Pocharam B.O,503186,BO,Delivery,NIZAMABAD,TELANGANA,TS,18.71002,77.9981733
Telangana Circle,Hyderabad Region,Nizamabad Division,Old Varni B.O,503201,BO,Delivery,NIZAMABAD,TELANGANA,TS,18.5407388,77.9194592
Telangana Circle,Hyderabad Region,Nizamabad Division,Jakhora B.O,503201,BO,Delivery,NIZAMABAD,TELANGANA,TS,18.5407388,77.9194592
Karnataka Circle,North Karnataka Region,Bidar Division,MANHALLI  S.O,585447,PO,Delivery,BIDAR,KARNATAKA,KA,17.8155,76.7971
Karnataka Circle,North Karnataka Region,Bidar Division,Aliabad B.O,585404,BO,Delivery,BIDAR,KARNATAKA,KA,17.6258,78.5955
Punjab Circle,Punjab West Region,Faridkot Division,Golewala S.O,151214,PO,Delivery,FARIDKOT,PUNJAB,PB,30.790411,74.699154
Telangana Circle,Hyderabad Region,Nizamabad Division,Wajidnagar B.O,503187,BO,Delivery,KAMAREDDY,TELANGANA,TS,18.3860155,77.7949242
Telangana Circle,Hyderabad Region,Nizamabad Division,Budmi B.O,503187,BO,Delivery,KAMAREDDY,TELANGANA,TS,18.3393718,77.8846467
Telangana Circle,Hyderabad Region,Nizamabad Division,Galipur B.O,503187,BO,Delivery,KAMAREDDY,TELANGANA,TS,18.2967347,77.9024795
Telangana Circle,Hyderabad Region,Nizamabad Division,Thippapur B.O,503101,BO,Delivery,KAMAREDDY,TELANGANA,TS,18.1946528,78.3653902
Telangana Circle,Hyderabad Region,Nizamabad Division,Bhikno R.S. B.O,503101,BO,Delivery,KAMAREDDY,TELANGANA,TS,18.1632809,78.3989966
Telangana Circle,Hyderabad Region,Nizamabad Division,Dhadgi B.O,503306,BO,Delivery,KAMAREDDY,TELANGANA,TS,18.3708516,77.7408783
Telangana Circle,Hyderabad Region,Nizamabad Division,Faridpet B.O,503123,BO,Delivery,KAMAREDDY,TELANGANA,TS,18.3137197,78.4559903
Telangana Circle,Hyderabad Region,Nizamabad Division,Sangameshwar B.O,503123,BO,Delivery,KAMAREDDY,TELANGANA,TS,18.2233893,78.4516614
Telangana Circle,Hyderabad Region,Nizamabad Division,Gurjal B.O,503114,BO,Delivery,KAMAREDDY,TELANGANA,TS,18.35771,78.1409383
Telangana Circle,Hyderabad Region,Nizamabad Division,Pothangalkalan B.O,503114,BO,Delivery,KAMAREDDY,TELANGANA,TS,18.3828083,78.066925
Telangana Circle,Hyderabad Region,Nizamabad Division,Narsannapalli B.O,503102,BO,Delivery,KAMAREDDY,TELANGANA,TS,18.2746869,78.3558637
Telangana Circle,Hyderabad Region,Nizamabad Division,Pondurthy B.O,503102,BO,Delivery,KAMAREDDY,TELANGANA,TS,18.2515275,78.3603341
Telangana Circle,Hyderabad Region,Nizamabad Division,Anthampalli B.O,503102,BO,Delivery,KAMAREDDY,TELANGANA,TS,18.2171051,78.405877
Telangana Circle,Hyderabad Region,Nizamabad Division,Adloor B.O,503145,BO,Delivery,KAMAREDDY,TELANGANA,TS,18.3716726,78.3090759
Telangana Circle,Hyderabad Region,Nizamabad Division,Chukkapur B.O,503112,BO,Delivery,KAMAREDDY,TELANGANA,TS,18.3558646,78.329699
Telangana Circle,Hyderabad Region,Nizamabad Division,Devanappli B.O,503112,BO,Delivery,KAMAREDDY,TELANGANA,TS,18.3193907,78.3222828
Telangana Circle,Hyderabad Region,Nizamabad Division,Korpole B.O,503124,BO,Delivery,KAMAREDDY,TELANGANA,TS,18.2921474,78.1160155
Telangana Circle,Hyderabad Region,Nizamabad Division,Perumalla B.O,503124,BO,Delivery,KAMAREDDY,TELANGANA,TS,18.2004642,78.1276489
Telangana Circle,Hyderabad Region,Nizamabad Division,Shakarga B.O,503309,BO,Delivery,KAMAREDDY,TELANGANA,TS,18.5329923,77.618717
Telangana Circle,Hyderabad Region,Nizamabad Division,Tadgur B.O,503309,BO,Delivery,KAMAREDDY,TELANGANA,TS,18.4655447,77.5947896
Telangana Circle,Hyderabad Region,Nizamabad Division,Manoor B.O,503309,BO,Delivery,KAMAREDDY,TELANGANA,TS,18.4787566,77.6578199
Telangana Circle,Hyderabad Region,Nizamabad Division,Thimmakapalli B.O,503110,BO,Delivery,KAMAREDDY,TELANGANA,TS,18.2632537,78.3335367
Telangana Circle,Hyderabad Region,Nizamabad Division,Gidda B.O,503144,BO,Delivery,KAMAREDDY,TELANGANA,TS,18.4168236,78.4215379
Telangana Circle,Hyderabad Region,Nizamabad Division,Esaipet B.O,503144,BO,Delivery,KAMAREDDY,TELANGANA,TS,18.3648215,78.4482065
Telangana Circle,Hyderabad Region,Nizamabad Division,Isrojiwadi B.O,503144,BO,Delivery,KAMAREDDY,TELANGANA,TS,18.3832431,78.3376219
Telangana Circle,Hyderabad Region,Nizamabad Division,Somarampet B.O,503144,BO,Delivery,KAMAREDDY,TELANGANA,TS,18.4128686,78.5354213
Telangana Circle,Hyderabad Region,Nizamabad Division,Kalyani B.O,503122,BO,Delivery,KAMAREDDY,TELANGANA,TS,18.2231027,78.0036348
Telangana Circle,Hyderabad Region,Nizamabad Division,Rudraram B.O,503122,BO,Delivery,KAMAREDDY,TELANGANA,TS,18.1345709,77.9926778
Telangana Circle,Hyderabad Region,Nizamabad Division,Godmegaon B.O,503310,BO,Delivery,KAMAREDDY,TELANGANA,TS,18.2316507,77.756802
Telangana Circle,Hyderabad Region,Nizamabad Division,Chinnamallareddy B.O,503110,BO,Delivery,KAMAREDDY,TELANGANA,TS,18.2632537,78.3335367
Telangana Circle,Hyderabad Region,Nizamabad Division,Chitial B.O,503110,BO,Delivery,KAMAREDDY,TELANGANA,TS,18.259275,78.2497883
Telangana Circle,Hyderabad Region,Nizamabad Division,Moshampur B.O,503144,BO,Delivery,KAMAREDDY,TELANGANA,TS,18.4105263,78.3219411
Telangana Circle,Hyderabad Region,Nizamabad Division,Padmajiwadi B.O,503145,BO,Delivery,KAMAREDDY,TELANGANA,TS,18.441034,78.237848
Telangana Circle,Hyderabad Region,Nizamabad Division,Atmakur B.O,503122,BO,Delivery,KAMAREDDY,TELANGANA,TS,18.106488,78.0427315
Telangana Circle,Hyderabad Region,Nizamabad Division,Gundiwait B.O,503122,BO,Delivery,KAMAREDDY,TELANGANA,TS,18.1948856,78.0148579
Telangana Circle,Hyderabad Region,Nizamabad Division,Yellutla B.O,503122,BO,Delivery,KAMAREDDY,TELANGANA,TS,18.1948856,78.0148579
Telangana Circle,Hyderabad Region,Nizamabad Division,Kankal B.O,503120,BO,Delivery,KAMAREDDY,TELANGANA,TS,18.3389114,78.2170172
Telangana Circle,Hyderabad Region,Nizamabad Division,Nandiwada B.O,503120,BO,Delivery,KAMAREDDY,TELANGANA,TS,18.266342,78.222613
Telangana Circle,Hyderabad Region,Nizamabad Division,Pegdapalli B.O,503235,BO,Delivery,NIZAMABAD,TELANGANA,TS,18.7372407,77.9031943
Telangana Circle,Hyderabad Region,Nizamabad Division,Nasrullabad B.O,503321,BO,Delivery,KAMAREDDY,TELANGANA,TS,18.4842409,77.86523
Telangana Circle,Hyderabad Region,Nizamabad Division,Thimmapuram B.O,503321,BO,Delivery,KAMAREDDY,TELANGANA,TS,18.4646473,77.8019238
Telangana Circle,Hyderabad Region,Nizamabad Division,Mandarna B.O,503185,BO,Delivery,NIZAMABAD,TELANGANA,TS,18.6709873,77.7470805
Telangana Circle,Hyderabad Region,Nizamabad Division,Pentakurd B.O,503185,BO,Delivery,NIZAMABAD,TELANGANA,TS,18.6377136,77.8508534
Telangana Circle,Hyderabad Region,Nizamabad Division,Badsi B.O,503230,BO,Delivery,NIZAMABAD,TELANGANA,TS,18.647018,78.133392
Telangana Circle,Hyderabad Region,Nizamabad Division,Boregaon B.O,503230,BO,Delivery,NIZAMABAD,TELANGANA,TS,18.647018,78.133392
Telangana Circle,Hyderabad Region,Nizamabad Division,Kurnapalli B.O,503202,BO,Delivery,NIZAMABAD,TELANGANA,TS,18.6937116,78.052145
Telangana Circle,Hyderabad Region,Nizamabad Division,Kondur B.O,503246,BO,Delivery,NIZAMABAD,TELANGANA,TS,18.8111298,78.0629922
Telangana Circle,Hyderabad Region,Nizamabad Division,Pothangal B.O,503246,BO,Delivery,NIZAMABAD,TELANGANA,TS,18.7963568,78.0287932
Telangana Circle,Hyderabad Region,Nizamabad Division,Binola B.O,503246,BO,Delivery,NIZAMABAD,TELANGANA,TS,18.8534023,78.0339875
Telangana Circle,Hyderabad Region,Nizamabad Division,Edgikalan B.O,503305,BO,Delivery,KAMAREDDY,TELANGANA,TS,18.3892066,77.5954683
Telangana Circle,Hyderabad Region,Nizamabad Division,Gullabuzrug B.O,503305,BO,Delivery,KAMAREDDY,TELANGANA,TS,18.3649883,77.539875
Telangana Circle,Hyderabad Region,Nizamabad Division,Wajrakhandi B.O,503305,BO,Delivery,KAMAREDDY,TELANGANA,TS,18.31412,77.614685
Telangana Circle,Hyderabad Region,Nizamabad Division,Sunkini B.O,503207,BO,Delivery,NIZAMABAD,TELANGANA,TS,18.6298832,77.74626
Telangana Circle,Hyderabad Region,Nizamabad Division,Domaledgi B.O,503207,BO,Delivery,NIZAMABAD,TELANGANA,TS,18.6305759,77.7909988
Telangana Circle,Hyderabad Region,Nizamabad Division,Hangarga B.O,503309,BO,Delivery,KAMAREDDY,TELANGANA,TS,18.427403,77.5728932
Telangana Circle,Hyderabad Region,Nizamabad Division,Mailaram B.O,503301,BO,Delivery,KAMAREDDY,TELANGANA,TS,18.445695,77.855289
Telangana Circle,Hyderabad Region,Nizamabad Division,Konepalli B.O,503245,BO,Delivery,NIZAMABAD,TELANGANA,TS,18.7628816,77.9818416
Telangana Circle,Hyderabad Region,Nizamabad Division,Maddepalli B.O,503245,BO,Delivery,NIZAMABAD,TELANGANA,TS,18.8328733,77.9988949
Telangana Circle,Hyderabad Region,Nizamabad Division,Bhavanipet B.O,503122,BO,Delivery,KAMAREDDY,TELANGANA,TS,18.2840423,78.0581409
Telangana Circle,Hyderabad Region,Nizamabad Division,Bikkanur B.O,503122,BO,Delivery,KAMAREDDY,TELANGANA,TS,18.1673313,78.0433781
Telangana Circle,Hyderabad Region,Nizamabad Division,Jangamaipalli B.O,503122,BO,Delivery,KAMAREDDY,TELANGANA,TS,18.1424726,78.0121491
Telangana Circle,Hyderabad Region,Nizamabad Division,Masanipet B.O,503122,BO,Delivery,KAMAREDDY,TELANGANA,TS,18.1992492,78.0342518
Telangana Circle,Hyderabad Region,Nizamabad Division,Demi B.O,503120,BO,Delivery,KAMAREDDY,TELANGANA,TS,18.3245277,78.2124444
Telangana Circle,Hyderabad Region,Nizamabad Division,Kandakurthi B.O,503235,BO,Delivery,NIZAMABAD,TELANGANA,TS,18.819248,77.900276
Telangana Circle,Hyderabad Region,Nizamabad Division,ARP Camp B.O,503235,BO,Delivery,NIZAMABAD,TELANGANA,TS,18.691649,77.968597
Telangana Circle,Hyderabad Region,Khammam Division,Motamarri B.O,507204,BO,Delivery,KHAMMAM,TELANGANA,TS,16.9638551,80.3254796
Telangana Circle,Hyderabad Region,Khammam Division,Mustikuntla B.O,507204,BO,Delivery,KHAMMAM,TELANGANA,TS,17.33169,80.12005
Telangana Circle,Hyderabad Region,Khammam Division,Buddavaram B.O,507169,BO,Delivery,KHAMMAM,TELANGANA,TS,17.02024,80.07173
Telangana Circle,Hyderabad Region,Khammam Division,Kongara B.O,507169,BO,Delivery,KHAMMAM,TELANGANA,TS,17.02024,80.07173
Telangana Circle,Hyderabad Region,Khammam Division,Jagannadhapuram B.O,507208,BO,Delivery,KHAMMAM,TELANGANA,TS,17.1246942,80.2084123
Telangana Circle,Hyderabad Region,Khammam Division,Komatlagudem B.O,507208,BO,Delivery,KHAMMAM,TELANGANA,TS,17.1246912,80.2084153
Telangana Circle,Hyderabad Region,Khammam Division,Proddutur B.O,507208,BO,Delivery,KHAMMAM,TELANGANA,TS,17.1246882,80.2084183
Telangana Circle,Hyderabad Region,Khammam Division,Gopalapuram B.O,507002,BO,Delivery,KHAMMAM,TELANGANA,TS,17.48585,80.14456
Telangana Circle,Hyderabad Region,Khammam Division,Buradaraghavapur B.O,507168,BO,Delivery,KHAMMAM,TELANGANA,TS,17.3309909,80.4402834
Telangana Circle,Hyderabad Region,Khammam Division,Gudimalla B.O,507003,BO,Delivery,KHAMMAM,TELANGANA,TS,17.1937525,80.1421515
Telangana Circle,Hyderabad Region,Khammam Division,Kachirajugudem B.O,507003,BO,Delivery,KHAMMAM,TELANGANA,TS,17.2472668,80.1514307
Telangana Circle,Hyderabad Region,Khammam Division,Theerthala B.O,507003,BO,Delivery,KHAMMAM,TELANGANA,TS,17.29385,80.1433
Telangana Circle,Hyderabad Region,Khammam Division,Venkatayapalem B.O,507003,BO,Delivery,KHAMMAM,TELANGANA,TS,17.2411882,80.2247176
Telangana Circle,Hyderabad Region,Khammam Division,Chirumarri B.O,507158,BO,Delivery,KHAMMAM,TELANGANA,TS,17.1498471,80.066055
Telangana Circle,Hyderabad Region,Khammam Division,Guvvalagudem` B.O,507158,BO,Delivery,KHAMMAM,TELANGANA,TS,17.142659,80.0631751
Telangana Circle,Hyderabad Region,Khammam Division,Mudigonda B.O,507158,BO,Delivery,KHAMMAM,TELANGANA,TS,17.1648,80.02705
Telangana Circle,Hyderabad Region,Khammam Division,Vallapuram B.O,507158,BO,Delivery,KHAMMAM,TELANGANA,TS,17.1498471,80.066055
Telangana Circle,Hyderabad Region,Khammam Division,Battulapalli B.O,507209,BO,Delivery,KHAMMAM,TELANGANA,TS,17.200012,80.549988
Telangana Circle,Hyderabad Region,Khammam Division,Chennoor B.O,507209,BO,Delivery,KHAMMAM,TELANGANA,TS,17.200007,80.549993
Telangana Circle,Hyderabad Region,Khammam Division,Pedakorukondi B.O,507209,BO,Delivery,KHAMMAM,TELANGANA,TS,17.21331,80.59505
Telangana Circle,Hyderabad Region,Khammam Division,Talluri Venkatapuram B.O,507209,BO,Delivery,KHAMMAM,TELANGANA,TS,17.33339,81.1597
Telangana Circle,Hyderabad Region,Khammam Division,Telgaram B.O,507209,BO,Delivery,KHAMMAM,TELANGANA,TS,17.21331,80.59505
Telangana Circle,Hyderabad Region,Khammam Division,Kamepalli B.O,507122,BO,Delivery,KHAMMAM,TELANGANA,TS,17.4827,80.30275
Telangana Circle,Hyderabad Region,Khammam Division,Madhavaram B.O,507122,BO,Delivery,KHAMMAM,TELANGANA,TS,17.6006063,81.0892527
Telangana Circle,Hyderabad Region,Khammam Division,Perupalli B.O,507122,BO,Delivery,KHAMMAM,TELANGANA,TS,17.4827,80.30275
Telangana Circle,Hyderabad Region,Khammam Division,Chinnabeeravalli,507204,BO,Delivery,KHAMMAM,TELANGANA,TS,17.044022,80.328968
Telangana Circle,Hyderabad Region,Khammam Division,Rayanapeta,507204,BO,Delivery,KHAMMAM,TELANGANA,TS,16.99244,80.329569
Telangana Circle,Hyderabad Region,Khammam Division,Mangapuram B.O,507169,BO,Delivery,KHAMMAM,TELANGANA,TS,17.251025,80.3508901
Telangana Circle,Hyderabad Region,Khammam Division,Rayagudem B.O,507169,BO,Delivery,KHAMMAM,TELANGANA,TS,17.02024,80.07173
Telangana Circle,Hyderabad Region,Khammam Division,Ananthasagar B.O,507208,BO,Delivery,KHAMMAM,TELANGANA,TS,17.1246912,80.2084153
Bihar Circle,"East Region, Bhagalpur",Begusarai Division,Tilrath BO,851112,BO,Delivery,BEGUSARAI,BIHAR,BR,25.442095,86.066092
Bihar Circle,"East Region, Bhagalpur",Begusarai Division,Dahiya BO,851120,BO,Delivery,BEGUSARAI,BIHAR,BR,25.416675,86.129379
Bihar Circle,"East Region, Bhagalpur",Begusarai Division,Suryapura BO,851120,BO,Delivery,BEGUSARAI,BIHAR,BR,25.416675,86.129379
Bihar Circle,"East Region, Bhagalpur",Begusarai Division,Kavia BO,851120,BO,Delivery,BEGUSARAI,BIHAR,BR,25.416675,86.129379
Bihar Circle,"East Region, Bhagalpur",Begusarai Division,Aijani BO,848204,BO,Delivery,BEGUSARAI,BIHAR,BR,25.416675,86.129379
Bihar Circle,"East Region, Bhagalpur",Begusarai Division,Baraipura BO,848204,BO,Delivery,BEGUSARAI,BIHAR,BR,25.416675,86.129379
Bihar Circle,"East Region, Bhagalpur",Begusarai Division,Dunhi BO,848204,BO,Delivery,BEGUSARAI,BIHAR,BR,25.416675,86.129379
Bihar Circle,"East Region, Bhagalpur",Begusarai Division,Sihmachakka BO,848204,BO,Delivery,BEGUSARAI,BIHAR,BR,25.416675,86.129379
Bihar Circle,"East Region, Bhagalpur",Begusarai Division,Bishanpur Ahok BO,851204,BO,Delivery,BEGUSARAI,BIHAR,BR,25.511152,86.476908
Bihar Circle,"East Region, Bhagalpur",Begusarai Division,Ballia Bazar BO,851211,BO,Delivery,BEGUSARAI,BIHAR,BR,25.4821051,86.2975149
Bihar Circle,"East Region, Bhagalpur",Begusarai Division,Bank BO,851211,BO,Delivery,BEGUSARAI,BIHAR,BR,25.4149009,86.1348923
Bihar Circle,"East Region, Bhagalpur",Begusarai Division,Bari Ballia BO,851211,BO,Delivery,BEGUSARAI,BIHAR,BR,25.4196805,86.2748959
Bihar Circle,"East Region, Bhagalpur",Begusarai Division,Bhagatpur BO,851211,BO,Delivery,BEGUSARAI,BIHAR,BR,25.416675,86.129379
Bihar Circle,"East Region, Bhagalpur",Begusarai Division,Lakhminia Bazar BO,851211,BO,Delivery,BEGUSARAI,BIHAR,BR,25.416675,86.129379
Bihar Circle,"East Region, Bhagalpur",Munger Division,Khabra BO,813212,BO,Delivery,MUNGER,BIHAR,BR,24.555,85.258
Bihar Circle,"East Region, Bhagalpur",Saharsa Division,KAMALPUR,847451,BO,Delivery,SUPAUL,BIHAR,BR,26.2899113,86.8220341
Bihar Circle,"East Region, Bhagalpur",Saharsa Division,KUNAULI,847451,BO,Delivery,SUPAUL,BIHAR,BR,26.2899113,86.8220341
Bihar Circle,"East Region, Bhagalpur",Saharsa Division,Dagmara,847451,BO,Delivery,SUPAUL,BIHAR,BR,25.2899113,86.8220341
Bihar Circle,"East Region, Bhagalpur",Begusarai Division,Birpur BO,851127,BO,Delivery,BEGUSARAI,BIHAR,BR,25.416675,86.129379
Bihar Circle,"East Region, Bhagalpur",Begusarai Division,Fazilpur BO,851127,BO,Delivery,BEGUSARAI,BIHAR,BR,25.416675,86.129379
Bihar Circle,"East Region, Bhagalpur",Begusarai Division,Koria Haibatpur BO,851127,BO,Delivery,BEGUSARAI,BIHAR,BR,25.416675,86.129379
Bihar Circle,"East Region, Bhagalpur",Begusarai Division,Agapur BO,851128,BO,Delivery,BEGUSARAI,BIHAR,BR,25.416675,86.129379
Telangana Circle,Hyderabad City Region,Medak Division,Venkatapur BO,502114,BO,Delivery,SIDDIPET,TELANGANA,TS,NA,NA
Andhra Pradesh Circle,Vijayawada Region,Bhimavaram Division,Andaluru B.O,534238,BO,Delivery,WEST GODAVARI,ANDHRA PRADESH,AD,16.605931,81.621318
Andhra Pradesh Circle,Vijayawada Region,Bhimavaram Division,Nelapogula B.O,534240,BO,Delivery,WEST GODAVARI,ANDHRA PRADESH,AD,16.611914,81.661038
Andhra Pradesh Circle,Vijayawada Region,Bhimavaram Division,Jakkaram B.O,534206,BO,Delivery,WEST GODAVARI,ANDHRA PRADESH,AD,16.540798,81.456737
Andhra Pradesh Circle,Vijayawada Region,Bhimavaram Division,Kumudavalli B.O,534210,BO,Delivery,WEST GODAVARI,ANDHRA PRADESH,AD,16.571747,81.534958
Madhya Pradesh Circle,Jabalpur Region,Chhatarpur Division,Kudar B.O,472445,BO,Delivery,Niwari,MADHYA PRADESH,MP,24.7931,80.1856
Madhya Pradesh Circle,Jabalpur Region,Chhatarpur Division,Bhitari B.O,472445,BO,Delivery,Niwari,MADHYA PRADESH,MP,25.8795,78.7026
Madhya Pradesh Circle,Jabalpur Region,Chhatarpur Division,Shaktibheron B.O,472445,BO,Delivery,Niwari,MADHYA PRADESH,MP,25.3956,79.2631
Bihar Circle,"East Region, Bhagalpur",Begusarai Division,Jhiktia BO,851213,BO,Delivery,KHAGARIA,BIHAR,BR,25.511152,86.476908
Bihar Circle,"East Region, Bhagalpur",Begusarai Division,Babu Bagicha BO,851214,BO,Delivery,KHAGARIA,BIHAR,BR,25.511152,86.476908
Bihar Circle,"East Region, Bhagalpur",Begusarai Division,Balha  BO,851214,BO,Delivery,KHAGARIA,BIHAR,BR,25.511152,86.476908
Bihar Circle,"East Region, Bhagalpur",Begusarai Division,Fango BO,851214,BO,Delivery,KHAGARIA,BIHAR,BR,25.511152,86.476908
Bihar Circle,"East Region, Bhagalpur",Begusarai Division,Thatha BO,851214,BO,Delivery,KHAGARIA,BIHAR,BR,25.511152,86.476908
Bihar Circle,"East Region, Bhagalpur",Begusarai Division,Kaithi BO,851201,BO,Delivery,KHAGARIA,BIHAR,BR,25.511152,86.476908
Bihar Circle,"East Region, Bhagalpur",Begusarai Division,Keshavnagar BO,851201,BO,Delivery,KHAGARIA,BIHAR,BR,25.511152,86.476908
Andhra Pradesh Circle,Kurnool Region,Hindupur Division,Venkatampalli B.O,515101,BO,Delivery,ANANTAPUR,ANDHRA PRADESH,AD,14.27,77.67
Andhra Pradesh Circle,Kurnool Region,Hindupur Division,Gangampalli B.O,515231,BO,Delivery,ANANTAPUR,ANDHRA PRADESH,AD,14.04,77.81
Andhra Pradesh Circle,Kurnool Region,Hindupur Division,Guddadahalli B.O,515271,BO,Delivery,ANANTAPUR,ANDHRA PRADESH,AD,13.975403,77.104403
Andhra Pradesh Circle,Kurnool Region,Hindupur Division,Hottethimmanahalli B.O,515271,BO,Delivery,ANANTAPUR,ANDHRA PRADESH,AD,13.975404,77.104404
Andhra Pradesh Circle,Kurnool Region,Hindupur Division,Konkallu B.O,515271,BO,Delivery,ANANTAPUR,ANDHRA PRADESH,AD,13.975405,77.104405
Andhra Pradesh Circle,Kurnool Region,Hindupur Division,Tallikera B.O,515271,BO,Delivery,ANANTAPUR,ANDHRA PRADESH,AD,13.97541,77.10441
Andhra Pradesh Circle,Kurnool Region,Hindupur Division,Thirumaladevarapalli B.O,515271,BO,Delivery,ANANTAPUR,ANDHRA PRADESH,AD,13.975411,77.104411
Andhra Pradesh Circle,Kurnool Region,Hindupur Division,Duddebanda B.O,515164,BO,Delivery,ANANTAPUR,ANDHRA PRADESH,AD,14.0798861,77.6022051
Andhra Pradesh Circle,Kurnool Region,Hindupur Division,Kurubavandlapalli B.O,515164,BO,Delivery,ANANTAPUR,ANDHRA PRADESH,AD,14.0798863,77.6022053
Andhra Pradesh Circle,Kurnool Region,Hindupur Division,Munimadugu B.O,515164,BO,Delivery,ANANTAPUR,ANDHRA PRADESH,AD,14.0798864,77.6022054
Andhra Pradesh Circle,Kurnool Region,Hindupur Division,Sasanakota B.O,515212,BO,Delivery,ANANTAPUR,ANDHRA PRADESH,AD,13.828926,77.493284
Andhra Pradesh Circle,Kurnool Region,Hindupur Division,Cherlokodigepalli B.O,515303,BO,Delivery,ANANTAPUR,ANDHRA PRADESH,AD,13.9402898,77.2717067
Andhra Pradesh Circle,Kurnool Region,Hindupur Division,Manur B.O,515303,BO,Delivery,ANANTAPUR,ANDHRA PRADESH,AD,13.9402896,77.2717066
Andhra Pradesh Circle,Kurnool Region,Hindupur Division,Kassamudram B.O,515556,BO,Delivery,ANANTAPUR,ANDHRA PRADESH,AD,13.91,78.08
Andhra Pradesh Circle,Kurnool Region,Hindupur Division,Pulikintapalli B.O,515556,BO,Delivery,ANANTAPUR,ANDHRA PRADESH,AD,13.89,78.1
Andhra Pradesh Circle,Kurnool Region,Hindupur Division,Apprascheruvu B.O,515661,BO,Delivery,ANANTAPUR,ANDHRA PRADESH,AD,14.48,77.8
Andhra Pradesh Circle,Kurnool Region,Hindupur Division,Badannapalli B.O,515672,BO,Delivery,ANANTAPUR,ANDHRA PRADESH,AD,14.42,77.72
Andhra Pradesh Circle,Kurnool Region,Hindupur Division,Chigicherla B.O,515672,BO,Delivery,ANANTAPUR,ANDHRA PRADESH,AD,14.42,77.72
Andhra Pradesh Circle,Kurnool Region,Hindupur Division,Nasanakota B.O,515672,BO,Delivery,ANANTAPUR,ANDHRA PRADESH,AD,14.35,77.44
Andhra Pradesh Circle,Kurnool Region,Hindupur Division,Ravulacheruvu B.O,515672,BO,Delivery,ANANTAPUR,ANDHRA PRADESH,AD,14.42,77.72
Andhra Pradesh Circle,Kurnool Region,Hindupur Division,Sangala B.O,515672,BO,Delivery,ANANTAPUR,ANDHRA PRADESH,AD,14.42,77.72
Andhra Pradesh Circle,Kurnool Region,Hindupur Division,Subbaraopeta B.O,515672,BO,Delivery,ANANTAPUR,ANDHRA PRADESH,AD,14.42,77.72
Andhra Pradesh Circle,Kurnool Region,Hindupur Division,Gutibailu B.O,515521,BO,Delivery,ANANTAPUR,ANDHRA PRADESH,AD,14.03,78.33
Andhra Pradesh Circle,Kurnool Region,Hindupur Division,Jeenulakunta B.O,515521,BO,Delivery,ANANTAPUR,ANDHRA PRADESH,AD,14.12,78.28
Andhra Pradesh Circle,Kurnool Region,Hindupur Division,Kamatampalle B.O,515521,BO,Delivery,ANANTAPUR,ANDHRA PRADESH,AD,14.11,78.21
Andhra Pradesh Circle,Kurnool Region,Hindupur Division,Katakamvaripalli B.O,515521,BO,Delivery,ANANTAPUR,ANDHRA PRADESH,AD,14.09,78.26
Assam Circle,DivReportingCircle,Goalpara Division,Hatsingimari  S.O,783135,PO,Non Delivery,SOUTH SALMARA MANCACHAR,ASSAM,AS,25.431379,89.54179
Jharkhand Circle,NA,Dhanbad Division,NDC B.S.CITY,827016,PO,Delivery,BOKARO,JHARKHAND,JH,23.6575,86.1392
Andhra Pradesh Circle,Kurnool Region,Hindupur Division,Kowlepalli B.O,515591,BO,Delivery,ANANTAPUR,ANDHRA PRADESH,AD,14.09,78.17
Andhra Pradesh Circle,Kurnool Region,Hindupur Division,Muthyalacheruvu B.O,515591,BO,Delivery,ANANTAPUR,ANDHRA PRADESH,AD,14.09,78.15
Andhra Pradesh Circle,Kurnool Region,Hindupur Division,Pulagampalli B.O,515591,BO,Delivery,ANANTAPUR,ANDHRA PRADESH,AD,14.08,78.06
Andhra Pradesh Circle,Kurnool Region,Hindupur Division,Mundy Bazaar B.O,515591,BO,Delivery,ANANTAPUR,ANDHRA PRADESH,AD,14.11,78.16
Andhra Pradesh Circle,Kurnool Region,Hindupur Division,Chennamanayani Kota B.O,515641,BO,Delivery,ANANTAPUR,ANDHRA PRADESH,AD,14.42,77.57
Andhra Pradesh Circle,Kurnool Region,Hindupur Division,Dadalur B.O,515641,BO,Delivery,ANANTAPUR,ANDHRA PRADESH,AD,14.44,77.52
Andhra Pradesh Circle,Kurnool Region,Hindupur Division,Elakuntla B.O,515641,BO,Delivery,ANANTAPUR,ANDHRA PRADESH,AD,14.41,77.58
Andhra Pradesh Circle,Kurnool Region,Hindupur Division,Maruru B.O,515641,BO,Delivery,ANANTAPUR,ANDHRA PRADESH,AD,14.42,77.5
Andhra Pradesh Circle,Kurnool Region,Hindupur Division,Nawabkota B.O,515531,BO,Delivery,ANANTAPUR,ANDHRA PRADESH,AD,14.1113,77.9219
Andhra Pradesh Circle,Kurnool Region,Hindupur Division,Chippalamadugu B.O,515541,BO,Delivery,ANANTAPUR,ANDHRA PRADESH,AD,14.1996,77.801
Andhra Pradesh Circle,Kurnool Region,Hindupur Division,Lakkasamudram B.O,515541,BO,Delivery,ANANTAPUR,ANDHRA PRADESH,AD,14.136,78.153
Andhra Pradesh Circle,Kurnool Region,Hindupur Division,Uppalapadu B.O,515511,BO,Delivery,ANANTAPUR,ANDHRA PRADESH,AD,14.348,77.995
Andhra Pradesh Circle,Kurnool Region,Hindupur Division,Ubicherla B.O,515551,BO,Delivery,ANANTAPUR,ANDHRA PRADESH,AD,13.986,78.185
Andhra Pradesh Circle,Kurnool Region,Hindupur Division,Gasikavaripalli B.O,515154,BO,Delivery,ANANTAPUR,ANDHRA PRADESH,AD,14.1998,77.8012
Andhra Pradesh Circle,Kurnool Region,Hindupur Division,Chinnarayanipalli B.O,515501,BO,Delivery,ANANTAPUR,ANDHRA PRADESH,AD,14.233,78.094
Andhra Pradesh Circle,Kurnool Region,Hindupur Division,Peddachigullarevu B.O,515631,BO,Delivery,ANANTAPUR,ANDHRA PRADESH,AD,14.5628,77.857015
Andhra Pradesh Circle,Kurnool Region,Hindupur Division,Gowkanapalle B.O,515581,BO,Delivery,ANANTAPUR,ANDHRA PRADESH,AD,14.248,78.25489
Andhra Pradesh Circle,Kurnool Region,Hindupur Division,Kurlyreddivaripalli B.O,515581,BO,Delivery,ANANTAPUR,ANDHRA PRADESH,AD,14.2444,78.244
Andhra Pradesh Circle,Kurnool Region,Hindupur Division,Errakuntapalle B.O,515571,BO,Delivery,ANANTAPUR,ANDHRA PRADESH,AD,13.922649,78.2011499
Andhra Pradesh Circle,Kurnool Region,Hindupur Division,Gandhodivandlapalli B.O,515571,BO,Delivery,ANANTAPUR,ANDHRA PRADESH,AD,13.922669,78.2011675
Andhra Pradesh Circle,Kurnool Region,Hindupur Division,K.Mallireddipalle B.O,515571,BO,Delivery,ANANTAPUR,ANDHRA PRADESH,AD,13.9226849,78.2011842
Andhra Pradesh Circle,Kurnool Region,Hindupur Division,Mundlavaripalli B.O,515571,BO,Delivery,ANANTAPUR,ANDHRA PRADESH,AD,13.9226898,78.2011886
Andhra Pradesh Circle,Kurnool Region,Hindupur Division,Peddakadapalavaripalli B.O,515571,BO,Delivery,ANANTAPUR,ANDHRA PRADESH,AD,13.9226933,78.2011937
Andhra Pradesh Circle,Kurnool Region,Hindupur Division,Hallikera B.O,515311,BO,Delivery,ANANTAPUR,ANDHRA PRADESH,AD,13.805101,77.043901
Andhra Pradesh Circle,Kurnool Region,Hindupur Division,Karidasanahalli B.O,515311,BO,Delivery,ANANTAPUR,ANDHRA PRADESH,AD,13.805105,77.043905
Andhra Pradesh Circle,Kurnool Region,Hindupur Division,Maddanakunta B.O,515281,BO,Delivery,ANANTAPUR,ANDHRA PRADESH,AD,14.128105,76.980105
Andhra Pradesh Circle,Kurnool Region,Hindupur Division,Valasa B.O,515281,BO,Delivery,ANANTAPUR,ANDHRA PRADESH,AD,14.128107,76.980107
Andhra Pradesh Circle,Kurnool Region,Hindupur Division,Kaganapalli B.O,515241,BO,Delivery,ANANTAPUR,ANDHRA PRADESH,AD,13.93,77.77
Andhra Pradesh Circle,Kurnool Region,Hindupur Division,Mallepalli B.O,515241,BO,Delivery,ANANTAPUR,ANDHRA PRADESH,AD,13.97,77.72
Andhra Pradesh Circle,Kurnool Region,Hindupur Division,Vadigepalli B.O,515241,BO,Delivery,ANANTAPUR,ANDHRA PRADESH,AD,13.96,77.68
Andhra Pradesh Circle,Kurnool Region,Hindupur Division,Kuntimaddi B.O,515101,BO,Delivery,ANANTAPUR,ANDHRA PRADESH,AD,14.33,77.58
Andhra Pradesh Circle,Kurnool Region,Hindupur Division,Nagasamudram B.O,515101,BO,Delivery,ANANTAPUR,ANDHRA PRADESH,AD,14.31,77.66
Andhra Pradesh Circle,Kurnool Region,Hindupur Division,Thummalakunta B.O,515341,BO,Delivery,ANANTAPUR,ANDHRA PRADESH,AD,13.84,77.69
Andhra Pradesh Circle,Kurnool Region,Hindupur Division,Jakkasamudram B.O,515231,BO,Delivery,ANANTAPUR,ANDHRA PRADESH,AD,13.983804,77.772304
Andhra Pradesh Circle,Kurnool Region,Hindupur Division,Kammavaripalli B.O,515231,BO,Delivery,ANANTAPUR,ANDHRA PRADESH,AD,13.983805,77.772305
Andhra Pradesh Circle,Kurnool Region,Hindupur Division,Kondapuram B.O,515231,BO,Delivery,ANANTAPUR,ANDHRA PRADESH,AD,13.983807,77.772307
Andhra Pradesh Circle,Kurnool Region,Hindupur Division,Bommagondanahalli B.O,515271,BO,Delivery,ANANTAPUR,ANDHRA PRADESH,AD,13.975401,77.104401
Andhra Pradesh Circle,Kurnool Region,Hindupur Division,Mutukuru B.O,515271,BO,Delivery,ANANTAPUR,ANDHRA PRADESH,AD,13.975408,77.104408
Andhra Pradesh Circle,Kurnool Region,Hindupur Division,Venkatagiripalem B.O,515164,BO,Delivery,ANANTAPUR,ANDHRA PRADESH,AD,14.0798865,77.6022055
Andhra Pradesh Circle,Kurnool Region,Hindupur Division,Nidraghatta B.O,515286,BO,Delivery,ANANTAPUR,ANDHRA PRADESH,AD,14.0272,76.9933
Andhra Pradesh Circle,Kurnool Region,Hindupur Division,Malugur B.O,515212,BO,Delivery,ANANTAPUR,ANDHRA PRADESH,AD,13.82892,77.493282
Andhra Pradesh Circle,Kurnool Region,Hindupur Division,Moda B.O,515212,BO,Delivery,ANANTAPUR,ANDHRA PRADESH,AD,13.828921,77.493282
Andhra Pradesh Circle,Kurnool Region,Hindupur Division,Bullasamudram B.O,515303,BO,Delivery,ANANTAPUR,ANDHRA PRADESH,AD,13.828927,77.493286
Andhra Pradesh Circle,Kurnool Region,Hindupur Division,Tummala B.O,515556,BO,Delivery,ANANTAPUR,ANDHRA PRADESH,AD,13.93,78.07
Andhra Pradesh Circle,Kurnool Region,Hindupur Division,Ghntapuram B.O,515661,BO,Delivery,ANANTAPUR,ANDHRA PRADESH,AD,14.5,77.78
Andhra Pradesh Circle,Kurnool Region,Hindupur Division,Musturu B.O,515661,BO,Delivery,ANANTAPUR,ANDHRA PRADESH,AD,14.53,77.72
Andhra Pradesh Circle,Kurnool Region,Hindupur Division,Potlamarri B.O,515661,BO,Delivery,ANANTAPUR,ANDHRA PRADESH,AD,14.5,77.76
Andhra Pradesh Circle,Kurnool Region,Hindupur Division,Buchayyagaripalli B.O,515144,BO,Delivery,ANANTAPUR,ANDHRA PRADESH,AD,14.22,77.81
Andhra Pradesh Circle,Kurnool Region,Hindupur Division,Kesapuram B.O,515144,BO,Delivery,ANANTAPUR,ANDHRA PRADESH,AD,14.26,77.77
Andhra Pradesh Circle,Kurnool Region,Hindupur Division,Mylasamudram B.O,515144,BO,Delivery,ANANTAPUR,ANDHRA PRADESH,AD,14.26,77.78
Andhra Pradesh Circle,Kurnool Region,Hindupur Division,Narepalli B.O,515144,BO,Delivery,ANANTAPUR,ANDHRA PRADESH,AD,14.24,77.79
Andhra Pradesh Circle,Kurnool Region,Hindupur Division,D.Cherlopalli B.O,515672,BO,Delivery,ANANTAPUR,ANDHRA PRADESH,AD,14.42,77.72
Andhra Pradesh Circle,Kurnool Region,Hindupur Division,Darsimala B.O,515672,BO,Delivery,ANANTAPUR,ANDHRA PRADESH,AD,14.42,77.72
Andhra Pradesh Circle,Kurnool Region,Hindupur Division,Mallakalva B.O,515672,BO,Delivery,ANANTAPUR,ANDHRA PRADESH,AD,14.42,77.72
Andhra Pradesh Circle,Kurnool Region,Hindupur Division,Ramagiri B.O,515672,BO,Delivery,ANANTAPUR,ANDHRA PRADESH,AD,14.31,77.5
Andhra Pradesh Circle,Kurnool Region,Hindupur Division,Tallimadugu B.O,515672,BO,Delivery,ANANTAPUR,ANDHRA PRADESH,AD,14.42,77.72
Andhra Pradesh Circle,Kurnool Region,Hindupur Division,Dhaniyancheruvu B.O,515521,BO,Delivery,ANANTAPUR,ANDHRA PRADESH,AD,14.08,78.36
Andhra Pradesh Circle,Kurnool Region,Hindupur Division,Katarupalle B.O,515521,BO,Delivery,ANANTAPUR,ANDHRA PRADESH,AD,14.11,78.25
Telangana Circle,Hyderabad Region,Peddapalli Division,Thumenapalli B.O,505498,BO,Delivery,KARIMNAGAR,TELANGANA,TS,18.2258121,79.3688857
Telangana Circle,Hyderabad Region,Peddapalli Division,Bornapalli B.O,505498,BO,Delivery,KARIMNAGAR,TELANGANA,TS,18.2046655,79.3811345
Telangana Circle,Hyderabad Region,Peddapalli Division,Kanaparthi B.O,505129,BO,Delivery,KARIMNAGAR,TELANGANA,TS,18.3266963,79.4079001
Telangana Circle,Hyderabad Region,Peddapalli Division,Muttaram B.O,505470,BO,Delivery,KARIMNAGAR,TELANGANA,TS,18.3320233,79.31671
Telangana Circle,Hyderabad Region,Peddapalli Division,Metpalli B.O,505470,BO,Delivery,KARIMNAGAR,TELANGANA,TS,18.2952533,79.3700933
Telangana Circle,Hyderabad Region,Peddapalli Division,Vegurpalli B.O,505505,BO,Delivery,KARIMNAGAR,TELANGANA,TS,18.4698287,79.2947145
Telangana Circle,Hyderabad Region,Peddapalli Division,Devampalli B.O,505505,BO,Delivery,KARIMNAGAR,TELANGANA,TS,NA,NA
Telangana Circle,Hyderabad Region,Peddapalli Division,Mogalipalam B.O,505474,BO,Delivery,KARIMNAGAR,TELANGANA,TS,18.2683149,79.2478833
Telangana Circle,Hyderabad Region,Peddapalli Division,Rekonda B.O,505474,BO,Delivery,KARIMNAGAR,TELANGANA,TS,18.2492383,79.2423233
Telangana Circle,Hyderabad Region,Peddapalli Division,Rachapalli B.O,505475,BO,Delivery,KARIMNAGAR,TELANGANA,TS,18.36509,79.5383633
Telangana Circle,Hyderabad Region,Peddapalli Division,Vilasagar B.O,505475,BO,Delivery,KARIMNAGAR,TELANGANA,TS,18.3766766,79.510565
Telangana Circle,Hyderabad Region,Peddapalli Division,Reddipalli B.O,505502,BO,Delivery,KARIMNAGAR,TELANGANA,TS,18.3600431,79.4164577
Telangana Circle,Hyderabad Region,Peddapalli Division,Yelbak B.O,505502,BO,Delivery,KARIMNAGAR,TELANGANA,TS,18.4078892,79.327984
Telangana Circle,Hyderabad Region,Peddapalli Division,Shayampet B.O,505122,BO,Delivery,KARIMNAGAR,TELANGANA,TS,18.318915,18.318915
Telangana Circle,Hyderabad Region,Peddapalli Division,Chelpur B.O,505122,BO,Delivery,KARIMNAGAR,TELANGANA,TS,18.23993,79.4544933
Telangana Circle,Hyderabad Region,Peddapalli Division,Illanthakunta B.O,505122,BO,Delivery,KARIMNAGAR,TELANGANA,TS,18.291575,79.502995
Telangana Circle,Hyderabad Region,Peddapalli Division,Parpalli B.O,505153,BO,Delivery,PEDDAPALLI,TELANGANA,TS,18.5129774,79.6280337
Telangana Circle,Hyderabad Region,Peddapalli Division,Kishtampet B.O,505153,BO,Delivery,PEDDAPALLI,TELANGANA,TS,18.4321499,79.494108
Telangana Circle,Hyderabad Region,Peddapalli Division,Mallial B.O,505153,BO,Delivery,PEDDAPALLI,TELANGANA,TS,18.4321499,79.494108
Telangana Circle,Hyderabad Region,Peddapalli Division,Motlapalli B.O,505153,BO,Delivery,PEDDAPALLI,TELANGANA,TS,18.4321499,79.494108
Telangana Circle,Hyderabad Region,Peddapalli Division,Madupalli B.O,505162,BO,Delivery,PEDDAPALLI,TELANGANA,TS,18.5155432,79.449063
Telangana Circle,Hyderabad Region,Peddapalli Division,Kothapalli B.O,505162,BO,Delivery,PEDDAPALLI,TELANGANA,TS,18.551682,79.4037517
Telangana Circle,Hyderabad Region,Peddapalli Division,Pegadapalli B.O,505162,BO,Delivery,PEDDAPALLI,TELANGANA,TS,18.5059114,79.4693633
Telangana Circle,Hyderabad Region,Peddapalli Division,Komera B.O,505152,BO,Delivery,PEDDAPALLI,TELANGANA,TS,18.4240211,79.465738
Telangana Circle,Hyderabad Region,Peddapalli Division,Shanagonda B.O,505152,BO,Delivery,PEDDAPALLI,TELANGANA,TS,18.4167802,79.4780313
Telangana Circle,Hyderabad Region,Peddapalli Division,Pandilla B.O,505152,BO,Delivery,PEDDAPALLI,TELANGANA,TS,18.4240831,79.4657463
Telangana Circle,Hyderabad Region,Peddapalli Division,Pothiyal B.O,505514,BO,Delivery,PEDDAPALLI,TELANGANA,TS,18.7903133,79.3482029
Telangana Circle,Hyderabad Region,Peddapalli Division,Bramanpalli B.O,505514,BO,Delivery,PEDDAPALLI,TELANGANA,TS,18.8016659,79.3829603
Telangana Circle,Hyderabad Region,Peddapalli Division,Botlavanaparthy B.O,505187,BO,Delivery,PEDDAPALLI,TELANGANA,TS,18.7206416,79.2613533
Telangana Circle,Hyderabad Region,Peddapalli Division,Jiyaram B.O,505187,BO,Delivery,PEDDAPALLI,TELANGANA,TS,18.7295283,79.332415
Telangana Circle,Hyderabad Region,Peddapalli Division,Ragned B.O,505187,BO,Delivery,PEDDAPALLI,TELANGANA,TS,18.68208,79.3764866
Telangana Circle,Hyderabad Region,Peddapalli Division,Kanagarthy B.O,505187,BO,Delivery,PEDDAPALLI,TELANGANA,TS,18.6776683,79.3561407
Telangana Circle,Hyderabad Region,Peddapalli Division,Kalvacherla B.O,505212,BO,Delivery,PEDDAPALLI,TELANGANA,TS,18.6321813,79.5287997
Telangana Circle,Hyderabad Region,Peddapalli Division,Dhulkatta B.O,505525,BO,Delivery,PEDDAPALLI,TELANGANA,TS,18.583883,79.2744048
Telangana Circle,Hyderabad Region,Peddapalli Division,Muppirithota B.O,505525,BO,Delivery,PEDDAPALLI,TELANGANA,TS,18.5881247,79.2909966
Telangana Circle,Hyderabad Region,Peddapalli Division,Kachapur B.O,505525,BO,Delivery,PEDDAPALLI,TELANGANA,TS,18.6304449,79.2424449
Telangana Circle,Hyderabad Region,Peddapalli Division,Sultanpur B.O,505525,BO,Delivery,PEDDAPALLI,TELANGANA,TS,18.5298975,79.2367372
Telangana Circle,Hyderabad Region,Peddapalli Division,Maidpalli B.O,505209,BO,Delivery,PEDDAPALLI,TELANGANA,TS,18.783395,79.4810433
Telangana Circle,Hyderabad Region,Peddapalli Division,Perepalli B.O,505188,BO,Delivery,PEDDAPALLI,TELANGANA,TS,18.6681848,79.478468
Telangana Circle,Hyderabad Region,Peddapalli Division,Erukulagudem B.O,505498,BO,Delivery,KARIMNAGAR,TELANGANA,TS,18.2649946,79.3666044
Telangana Circle,Hyderabad Region,Peddapalli Division,Godashal B.O,505498,BO,Delivery,KARIMNAGAR,TELANGANA,TS,18.1868947,79.3443583
Telangana Circle,Hyderabad Region,Peddapalli Division,Pothireddipalli B.O,505129,BO,Delivery,KARIMNAGAR,TELANGANA,TS,18.3716855,79.4580589
Telangana Circle,Hyderabad Region,Peddapalli Division,Kothaghat B.O,505490,BO,Delivery,KARIMNAGAR,TELANGANA,TS,18.2639233,79.3362383
Telangana Circle,Hyderabad Region,Peddapalli Division,Amudalapalli B.O,505470,BO,Delivery,KARIMNAGAR,TELANGANA,TS,18.3055183,79.3628883
Telangana Circle,Hyderabad Region,Peddapalli Division,Gaddapak B.O,505470,BO,Delivery,KARIMNAGAR,TELANGANA,TS,18.3444516,79.3565016
Telangana Circle,Hyderabad Region,Peddapalli Division,Pachnur B.O,505505,BO,Delivery,KARIMNAGAR,TELANGANA,TS,18.4292033,79.3017166
Telangana Circle,Hyderabad Region,Peddapalli Division,Madhuda B.O,505472,BO,Delivery,SIDDIPET,TELANGANA,TS,18.1751416,79.2307816
Telangana Circle,Hyderabad Region,Peddapalli Division,Ramachandrapuram B.O,505472,BO,Delivery,KARIMNAGAR,TELANGANA,TS,18.21825,79.3422316
Telangana Circle,Hyderabad Region,Peddapalli Division,Ambalpur B.O,505474,BO,Delivery,KARIMNAGAR,TELANGANA,TS,18.2937383,79.28419
Telangana Circle,Hyderabad Region,Peddapalli Division,Kondapalakala B.O,505474,BO,Delivery,KARIMNAGAR,TELANGANA,TS,18.3834833,79.3095816
Telangana Circle,Hyderabad Region,Peddapalli Division,Kandgal B.O,505101,BO,Delivery,KARIMNAGAR,TELANGANA,TS,18.1808233,79.4472249
Telangana Circle,Hyderabad Region,Peddapalli Division,Amangurthi B.O,505480,BO,Delivery,KARIMNAGAR,TELANGANA,TS,18.1634766,79.3638483
Telangana Circle,Hyderabad Region,Peddapalli Division,Vanthadupula B.O,505475,BO,Delivery,KARIMNAGAR,TELANGANA,TS,18.3597033,79.56717
Telangana Circle,Hyderabad Region,Peddapalli Division,Deshaipalli B.O,505502,BO,Delivery,KARIMNAGAR,TELANGANA,TS,18.405397,79.3701406
Telangana Circle,Hyderabad Region,Peddapalli Division,Ghanmukla B.O,505502,BO,Delivery,KARIMNAGAR,TELANGANA,TS,18.3786941,79.3756903
Telangana Circle,Hyderabad Region,Peddapalli Division,Chamanpalli B.O,505186,BO,Delivery,KARIMNAGAR,TELANGANA,TS,18.5128424,79.1901559
Telangana Circle,Hyderabad Region,Peddapalli Division,Madipalli B.O,505122,BO,Delivery,KARIMNAGAR,TELANGANA,TS,18.2549883,79.4829016
Telangana Circle,Hyderabad Region,Peddapalli Division,Sarsaid B.O,505122,BO,Delivery,KARIMNAGAR,TELANGANA,TS,18.2911383,79.5395499
Telangana Circle,Hyderabad Region,Peddapalli Division,Dharmaram B.O,505122,BO,Delivery,KARIMNAGAR,TELANGANA,TS,18.3036783,79.4907183
Telangana Circle,Hyderabad Region,Peddapalli Division,Kanagarthi B.O,505122,BO,Delivery,KARIMNAGAR,TELANGANA,TS,18.2473405,79.4940527
Telangana Circle,Hyderabad Region,Peddapalli Division,Pothireddipet B.O,505498,BO,Delivery,KARIMNAGAR,TELANGANA,TS,18.2696579,79.4084966
Telangana Circle,Hyderabad Region,Peddapalli Division,Korepalli B.O,505129,BO,Delivery,KARIMNAGAR,TELANGANA,TS,18.3362746,79.4664689
Telangana Circle,Hyderabad Region,Peddapalli Division,Valbhapur B.O,505129,BO,Delivery,KARIMNAGAR,TELANGANA,TS,18.3173492,79.4371499
Telangana Circle,Hyderabad Region,Peddapalli Division,Eklaspur B.O,505490,BO,Delivery,KARIMNAGAR,TELANGANA,TS,18.2472516,79.2839316
Telangana Circle,Hyderabad Region,Peddapalli Division,Rajapur B.O,505470,BO,Delivery,KARIMNAGAR,TELANGANA,TS,18.3193816,79.3520633
Odisha Circle,DivReportingCircle,Cuttack South Division,Gopapur B.O,754031,BO,Delivery,CUTTACK,ODISHA,OD,20.4101233,85.2988016
Odisha Circle,DivReportingCircle,Cuttack South Division,Ichhapur B.O,754031,BO,Delivery,CUTTACK,ODISHA,OD,20.39566,85.3149483
Odisha Circle,DivReportingCircle,Cuttack South Division,Jhajia B.O,754031,BO,Delivery,CUTTACK,ODISHA,OD,20.3904949,85.3055683
Odisha Circle,DivReportingCircle,Cuttack South Division,Jodumuhan B.O,754031,BO,Delivery,CUTTACK,ODISHA,OD,20.4004016,85.4271866
Odisha Circle,DivReportingCircle,Cuttack South Division,Mangarajpur B.O,754028,BO,Delivery,CUTTACK,ODISHA,OD,20.600541,85.8875532
Odisha Circle,DivReportingCircle,Cuttack South Division,Sankarpur B.O,754028,BO,Delivery,CUTTACK,ODISHA,OD,20.5812887,85.8917082
Odisha Circle,DivReportingCircle,Cuttack South Division,Kayalpada B.O,754027,BO,Delivery,CUTTACK,ODISHA,OD,20.5135334,85.8448849
Odisha Circle,DivReportingCircle,Cuttack South Division,Mancheswar B.O,754027,BO,Delivery,CUTTACK,ODISHA,OD,20.5077819,85.8036835
Odisha Circle,DivReportingCircle,Cuttack South Division,Champeswar B.O,754037,BO,Delivery,CUTTACK,ODISHA,OD,20.4330375,85.1603941
Odisha Circle,DivReportingCircle,Cuttack South Division,Ekdal B.O,754037,BO,Delivery,CUTTACK,ODISHA,OD,20.411133,85.1252419
Odisha Circle,DivReportingCircle,Cuttack South Division,Godibandha B.O,754037,BO,Delivery,CUTTACK,ODISHA,OD,20.4557547,85.185925
Odisha Circle,DivReportingCircle,Cuttack South Division,Padamal B.O,754037,BO,Delivery,CUTTACK,ODISHA,OD,20.4005723,85.1482789
Odisha Circle,DivReportingCircle,Cuttack South Division,Karanji B.O,754022,BO,Delivery,CUTTACK,ODISHA,OD,20.658058,85.9198744
Odisha Circle,DivReportingCircle,Cuttack South Division,Kairapari B.O,754022,BO,Delivery,CUTTACK,ODISHA,OD,20.548296,85.987915
Odisha Circle,DivReportingCircle,Cuttack South Division,Safa B.O,754022,BO,Delivery,CUTTACK,ODISHA,OD,20.6417131,85.953815
Odisha Circle,DivReportingCircle,Cuttack South Division,Uchapada B.O,754022,BO,Delivery,CUTTACK,ODISHA,OD,20.949337,86.516818
Odisha Circle,DivReportingCircle,Cuttack South Division,Bhera B.O,754290,BO,Delivery,CUTTACK,ODISHA,OD,20.564601,86.116651
Odisha Circle,DivReportingCircle,Cuttack South Division,Chasakhanda B.O,754290,BO,Delivery,CUTTACK,ODISHA,OD,20.804379,86.476908
Telangana Circle,Hyderabad Region,Peddapalli Division,Mirzampet B.O,505153,BO,Delivery,PEDDAPALLI,TELANGANA,TS,18.5129764,79.6280327
Telangana Circle,Hyderabad Region,Peddapalli Division,Tarpalli B.O,505153,BO,Delivery,PEDDAPALLI,TELANGANA,TS,18.4371965,79.5516928
Telangana Circle,Hyderabad Region,Peddapalli Division,Indurth B.O,505152,BO,Delivery,PEDDAPALLI,TELANGANA,TS,18.411943,79.5018977
Telangana Circle,Hyderabad Region,Peddapalli Division,Isala Thakkallapalli B.O,505187,BO,Delivery,PEDDAPALLI,TELANGANA,TS,18.72436,79.3760166
Telangana Circle,Hyderabad Region,Peddapalli Division,Palitham B.O,505187,BO,Delivery,PEDDAPALLI,TELANGANA,TS,18.68279,79.31823
Telangana Circle,Hyderabad Region,Peddapalli Division,Ratnapur B.O,505212,BO,Delivery,PEDDAPALLI,TELANGANA,TS,18.6288557,79.5512558
Telangana Circle,Hyderabad Region,Peddapalli Division,Adivarampet B.O,505212,BO,Delivery,PEDDAPALLI,TELANGANA,TS,18.6255235,79.572086
Telangana Circle,Hyderabad Region,Peddapalli Division,Ladnapur B.O,505212,BO,Delivery,PEDDAPALLI,TELANGANA,TS,18.630891,79.5736518
Telangana Circle,Hyderabad Region,Peddapalli Division,Kothapalli B.O,505497,BO,Delivery,WARANGAL URBAN,TELANGANA,TS,18.0843233,79.3851933
Telangana Circle,Hyderabad Region,Peddapalli Division,Manikyapur B.O,505497,BO,Delivery,WARANGAL URBAN,TELANGANA,TS,18.1436333,79.378035
Telangana Circle,Hyderabad Region,Peddapalli Division,Deshrajpalli B.O,505102,BO,Delivery,WARANGAL URBAN,TELANGANA,TS,18.1604166,79.4989466
Telangana Circle,Hyderabad Region,Peddapalli Division,Guniparthi B.O,505102,BO,Delivery,WARANGAL URBAN,TELANGANA,TS,18.1590649,79.5930633
Telangana Circle,Hyderabad Region,Peddapalli Division,Mutharam B.O,505471,BO,Delivery,WARANGAL URBAN,TELANGANA,TS,18.062805,79.34626
Telangana Circle,Hyderabad Region,Peddapalli Division,Veeranarayanpur B.O,505476,BO,Delivery,WARANGAL URBAN,TELANGANA,TS,18.1404731,79.4478562
Telangana Circle,Hyderabad Region,Peddapalli Division,Koppur B.O,505497,BO,Delivery,WARANGAL URBAN,TELANGANA,TS,18.1063433,79.378496
Telangana Circle,Hyderabad Region,Peddapalli Division,Penchikalpet B.O,505498,BO,Delivery,WARANGAL URBAN,TELANGANA,TS,18.1571596,79.4124038
Telangana Circle,Hyderabad Region,Peddapalli Division,Keshavapur B.O,505102,BO,Delivery,WARANGAL URBAN,TELANGANA,TS,18.1132866,79.5375766
Telangana Circle,Hyderabad Region,Peddapalli Division,Buttareddy Gudem B.O,505102,BO,Delivery,WARANGAL URBAN,TELANGANA,TS,18.239355,79.5573533
Telangana Circle,Hyderabad Region,Peddapalli Division,Vangapalli B.O,505102,BO,Delivery,WARANGAL URBAN,TELANGANA,TS,18.2021466,79.5599116
Andhra Pradesh Circle,Kurnool Region,Hindupur Division,Malamidipalli B.O,515521,BO,Delivery,ANANTAPUR,ANDHRA PRADESH,AD,14.02,78.27
Andhra Pradesh Circle,Kurnool Region,Hindupur Division,N.P.Kunta B.O,515521,BO,Delivery,ANANTAPUR,ANDHRA PRADESH,AD,14.04,78.4
Andhra Pradesh Circle,Kurnool Region,Hindupur Division,Bommireddipalli B.O,515591,BO,Delivery,ANANTAPUR,ANDHRA PRADESH,AD,14.04,78.18
Andhra Pradesh Circle,Kurnool Region,Hindupur Division,K.Brahmanapalli B.O,515591,BO,Delivery,ANANTAPUR,ANDHRA PRADESH,AD,14.12,78.16
Andhra Pradesh Circle,Kurnool Region,Hindupur Division,Narasampalli B.O,515641,BO,Delivery,ANANTAPUR,ANDHRA PRADESH,AD,14.45,77.54
Andhra Pradesh Circle,Kurnool Region,Hindupur Division,Thogarakunta B.O,515641,BO,Delivery,ANANTAPUR,ANDHRA PRADESH,AD,14.45,77.57
Andhra Pradesh Circle,Kurnool Region,Hindupur Division,Dabburivaripalli B.O,515531,BO,Delivery,ANANTAPUR,ANDHRA PRADESH,AD,14.12,77.93
Andhra Pradesh Circle,Kurnool Region,Hindupur Division,Donnikota B.O,515531,BO,Delivery,ANANTAPUR,ANDHRA PRADESH,AD,14.16,77.93
Andhra Pradesh Circle,Kurnool Region,Hindupur Division,Jagarajupalli B.O,515133,BO,Delivery,ANANTAPUR,ANDHRA PRADESH,AD,14.1114,77.9221
Andhra Pradesh Circle,Kurnool Region,Hindupur Division,Locherla B.O,515133,BO,Delivery,ANANTAPUR,ANDHRA PRADESH,AD,14.1866,77.7607
Andhra Pradesh Circle,Kurnool Region,Hindupur Division,Elukuntla B.O,515159,BO,Delivery,ANANTAPUR,ANDHRA PRADESH,AD,14.19,77.81
Andhra Pradesh Circle,Kurnool Region,Hindupur Division,Jonnalakothapalli B.O,515159,BO,Delivery,ANANTAPUR,ANDHRA PRADESH,AD,14.1995,77.802
Andhra Pradesh Circle,Kurnool Region,Hindupur Division,Nallacherlopalli B.O,515159,BO,Delivery,ANANTAPUR,ANDHRA PRADESH,AD,14.1998,77.8014
Andhra Pradesh Circle,Kurnool Region,Hindupur Division,Kondaguttapalli B.O,515541,BO,Delivery,ANANTAPUR,ANDHRA PRADESH,AD,14.1993,77.80141
Andhra Pradesh Circle,Kurnool Region,Hindupur Division,Pothulanagepalli B.O,515651,BO,Delivery,ANANTAPUR,ANDHRA PRADESH,AD,14.3358,77.719
Andhra Pradesh Circle,Kurnool Region,Hindupur Division,Veldurthi B.O,515651,BO,Delivery,ANANTAPUR,ANDHRA PRADESH,AD,14.3357,77.7153
Andhra Pradesh Circle,Kurnool Region,Hindupur Division,Gandlavandlapalli B.O,515511,BO,Delivery,ANANTAPUR,ANDHRA PRADESH,AD,14.347,77.994
Andhra Pradesh Circle,Kurnool Region,Hindupur Division,Marthadu B.O,515511,BO,Delivery,ANANTAPUR,ANDHRA PRADESH,AD,14.3499,77.995
Bihar Circle,"East Region, Bhagalpur",Begusarai Division,Bhadas BO,851204,BO,Delivery,KHAGARIA,BIHAR,BR,25.511152,86.476908
Bihar Circle,"East Region, Bhagalpur",Begusarai Division,Bishanpur Dumri BO,851204,BO,Delivery,KHAGARIA,BIHAR,BR,25.511152,86.476908
Bihar Circle,"East Region, Bhagalpur",Begusarai Division,Durgapur BO,851204,BO,Delivery,KHAGARIA,BIHAR,BR,25.511152,86.476908
Bihar Circle,"East Region, Bhagalpur",Begusarai Division,Jahangir Tola BO,851204,BO,Delivery,KHAGARIA,BIHAR,BR,25.416675,86.129379
Bihar Circle,"East Region, Bhagalpur",Begusarai Division,Jalkaura BO,851204,BO,Delivery,KHAGARIA,BIHAR,BR,25.511152,86.476908
Bihar Circle,"East Region, Bhagalpur",Begusarai Division,Labhgaon BO,851204,BO,Delivery,KHAGARIA,BIHAR,BR,25.511152,86.476908
Bihar Circle,"East Region, Bhagalpur",Begusarai Division,Pakrail BO,851213,BO,Delivery,KHAGARIA,BIHAR,BR,25.511152,86.476908
Bihar Circle,"East Region, Bhagalpur",Begusarai Division,Rohiyar BO,851214,BO,Delivery,KHAGARIA,BIHAR,BR,25.511152,86.476908
Bihar Circle,"East Region, Bhagalpur",Begusarai Division,Sansarpur BO,851214,BO,Delivery,KHAGARIA,BIHAR,BR,25.511152,86.476908
Bihar Circle,"East Region, Bhagalpur",Begusarai Division,Siswa BO,851214,BO,Delivery,KHAGARIA,BIHAR,BR,25.511152,86.476908
Bihar Circle,"East Region, Bhagalpur",Begusarai Division,Madarpur BO,851213,BO,Delivery,KHAGARIA,BIHAR,BR,25.511152,86.476908
Bihar Circle,"East Region, Bhagalpur",Begusarai Division,Patel Nagar Bharra BO,851213,BO,Delivery,KHAGARIA,BIHAR,BR,25.511152,86.476908
Bihar Circle,"East Region, Bhagalpur",Begusarai Division,Samaspur BO,851213,BO,Delivery,KHAGARIA,BIHAR,BR,25.511152,86.476908
Bihar Circle,"East Region, Bhagalpur",Begusarai Division,Amni BO,851214,BO,Delivery,KHAGARIA,BIHAR,BR,25.416675,86.129379
Bihar Circle,"East Region, Bhagalpur",Begusarai Division,Saidpur BO,851214,BO,Delivery,KHAGARIA,BIHAR,BR,25.511152,86.476908
Bihar Circle,"East Region, Bhagalpur",Begusarai Division,Sumbha BO,848201,BO,Delivery,KHAGARIA,BIHAR,BR,25.416675,86.129379
Telangana Circle,Hyderabad Region,Peddapalli Division,Yerrapalli B.O,505471,BO,Delivery,WARANGAL URBAN,TELANGANA,TS,18.0273599,79.3513383
Telangana Circle,Hyderabad Region,Peddapalli Division,Kannur B.O,505101,BO,Delivery,WARANGAL URBAN,TELANGANA,TS,18.2073083,79.5069516
Telangana Circle,Hyderabad Region,Peddapalli Division,Bhimpalli B.O,505101,BO,Delivery,WARANGAL URBAN,TELANGANA,TS,18.21277,79.4808233
Telangana Circle,Hyderabad Region,Peddapalli Division,Damera B.O,505476,BO,Delivery,WARANGAL URBAN,TELANGANA,TS,18.0736757,79.4258131
Telangana Circle,Hyderabad Region,Peddapalli Division,Suraram B.O,505476,BO,Delivery,WARANGAL URBAN,TELANGANA,TS,18.1292892,79.4537076
Punjab Circle,DivReportingCircle,Ludhiana Moffusil Division,BALION BO,141114,BO,Delivery,LUDHIANA,PUNJAB,PB,30.8607,76.1863
Telangana Circle,Hyderabad Region,Peddapalli Division,Gunded B.O,505122,BO,Delivery,WARANGAL URBAN,TELANGANA,TS,18.231065,79.5186166
Telangana Circle,Hyderabad Region,Peddapalli Division,Timmapur B.O,505102,BO,Delivery,WARANGAL URBAN,TELANGANA,TS,16.6138273,78.9505003
Telangana Circle,Hyderabad Region,Peddapalli Division,Nerella B.O,505102,BO,Delivery,WARANGAL URBAN,TELANGANA,TS,18.162765,79.5742766
Telangana Circle,Hyderabad Region,Peddapalli Division,Shanigaram B.O,505102,BO,Delivery,WARANGAL URBAN,TELANGANA,TS,18.1858416,79.59424
Andhra Pradesh Circle,Kurnool Region,Anantapur Division,N.Narsapuram B.O,515803,BO,Delivery,ANANTAPUR,ANDHRA PRADESH,AD,15.02,77.06
Andhra Pradesh Circle,Kurnool Region,Anantapur Division,Anumpalli B.O,515775,BO,Delivery,ANANTAPUR,ANDHRA PRADESH,AD,14.95,77.58
Andhra Pradesh Circle,Kurnool Region,Anantapur Division,Devarapalli B.O,515775,BO,Delivery,ANANTAPUR,ANDHRA PRADESH,AD,14.96,77.4
Andhra Pradesh Circle,Kurnool Region,Anantapur Division,Vankarajukalva B.O,515775,BO,Delivery,ANANTAPUR,ANDHRA PRADESH,AD,14.9,77.43
Andhra Pradesh Circle,Kurnool Region,Anantapur Division,Dimmagudi B.O,515405,BO,Delivery,ANANTAPUR,ANDHRA PRADESH,AD,15.02,77.49
Andhra Pradesh Circle,Kurnool Region,Anantapur Division,Lachumpalli B.O,515405,BO,Delivery,ANANTAPUR,ANDHRA PRADESH,AD,15.07,77.52
Andhra Pradesh Circle,Kurnool Region,Anantapur Division,Ramarajupalli B.O,515405,BO,Delivery,ANANTAPUR,ANDHRA PRADESH,AD,14.97,77.24
Andhra Pradesh Circle,Kurnool Region,Anantapur Division,Kalyam B.O,515865,BO,Delivery,ANANTAPUR,ANDHRA PRADESH,AD,14.82,76.85
Andhra Pradesh Circle,Kurnool Region,Anantapur Division,Muradi Hanumapuram B.O,515865,BO,Delivery,ANANTAPUR,ANDHRA PRADESH,AD,14.84,76.69
Andhra Pradesh Circle,Kurnool Region,Anantapur Division,R.B.Vanka B.O,515865,BO,Delivery,ANANTAPUR,ANDHRA PRADESH,AD,15.19,76.78
Andhra Pradesh Circle,Kurnool Region,Anantapur Division,Krishtipadu B.O,515455,BO,Delivery,ANANTAPUR,ANDHRA PRADESH,AD,15.07,77.63
Andhra Pradesh Circle,Kurnool Region,Anantapur Division,Nagarur B.O,515455,BO,Delivery,ANANTAPUR,ANDHRA PRADESH,AD,15.05,77.64
Andhra Pradesh Circle,Kurnool Region,Anantapur Division,Chitrachedu B.O,515611,BO,Delivery,ANANTAPUR,ANDHRA PRADESH,AD,15.1,76.85
Andhra Pradesh Circle,Kurnool Region,Anantapur Division,Bommakkapalli B.O,515867,BO,Delivery,ANANTAPUR,ANDHRA PRADESH,AD,15.21,76.64
Andhra Pradesh Circle,Visakhapatnam Region,Visakhapatnam Division,Mutcherla B.O,531173,BO,Delivery,VISAKHAPATANAM,ANDHRA PRADESH,AD,17.9,83.29
Andhra Pradesh Circle,Visakhapatnam Region,Visakhapatnam Division,Kanamam B.O,531173,BO,Delivery,VISAKHAPATANAM,ANDHRA PRADESH,AD,17.87,83.26
Andhra Pradesh Circle,Kurnool Region,Anantapur Division,Unthakallu B.O,515871,BO,Delivery,ANANTAPUR,ANDHRA PRADESH,AD,15.06,76.59
Andhra Pradesh Circle,Kurnool Region,Anantapur Division,Yerragunta B.O,515871,BO,Delivery,ANANTAPUR,ANDHRA PRADESH,AD,15.06,76.59
Andhra Pradesh Circle,Kurnool Region,Anantapur Division,Chayapuram B.O,515842,BO,Delivery,ANANTAPUR,ANDHRA PRADESH,AD,14.58,76.44
Andhra Pradesh Circle,Kurnool Region,Anantapur Division,Donekal B.O,515842,BO,Delivery,ANANTAPUR,ANDHRA PRADESH,AD,15.44,76.65
Andhra Pradesh Circle,Kurnool Region,Anantapur Division,Gulapalyam B.O,515842,BO,Delivery,ANANTAPUR,ANDHRA PRADESH,AD,15.67,77.42
Andhra Pradesh Circle,Kurnool Region,Anantapur Division,Thimmapuram B.O,515803,BO,Delivery,ANANTAPUR,ANDHRA PRADESH,AD,15.15,76.95
Andhra Pradesh Circle,Kurnool Region,Anantapur Division,Eddulapalli B.O,515775,BO,Delivery,ANANTAPUR,ANDHRA PRADESH,AD,15.09,77.6
Andhra Pradesh Circle,Kurnool Region,Anantapur Division,G.Kottala B.O,515775,BO,Delivery,ANANTAPUR,ANDHRA PRADESH,AD,15.08,77.58
Andhra Pradesh Circle,Kurnool Region,Anantapur Division,Kalapuram B.O,515775,BO,Delivery,ANANTAPUR,ANDHRA PRADESH,AD,15.07,77.57
Andhra Pradesh Circle,Kurnool Region,Anantapur Division,Katrimala B.O,515775,BO,Delivery,ANANTAPUR,ANDHRA PRADESH,AD,15,77.4
Andhra Pradesh Circle,Kurnool Region,Anantapur Division,Mamadur B.O,515405,BO,Delivery,ANANTAPUR,ANDHRA PRADESH,AD,15.12,77.51
Andhra Pradesh Circle,Kurnool Region,Anantapur Division,Miduthur B.O,515405,BO,Delivery,ANANTAPUR,ANDHRA PRADESH,AD,15.1,77.49
Andhra Pradesh Circle,Kurnool Region,Anantapur Division,Lakshmi Bazar B.O,515865,BO,Non Delivery,ANANTAPUR,ANDHRA PRADESH,AD,14.69,76.81
Andhra Pradesh Circle,Kurnool Region,Anantapur Division,Rayadurg Fort B.O,515865,BO,Non Delivery,ANANTAPUR,ANDHRA PRADESH,AD,14.73,76.81
Jharkhand Circle,NA,Hazaribagh Division,KATIA BO,825103,BO,Delivery,CHATRA,JHARKHAND,JH,24.058439,84.9371
Jharkhand Circle,NA,Hazaribagh Division,BHANDRA BO,829143,BO,Delivery,RAMGARH,JHARKHAND,JH,23.6393,85.3188
Bihar Circle,NA,AurangabadBihar Division,NPGCL Aditi Nagar S.O,824304,PO,Delivery,AURANGABAD,BIHAR,BR,25.5689,84.09579
Andhra Pradesh Circle,Kurnool Region,Anantapur Division,Chadam B.O,515865,BO,Delivery,ANANTAPUR,ANDHRA PRADESH,AD,14.7,76.84
Telangana Circle,Hyderabad Region,Peddapalli Division,Kothakonda B.O,505471,BO,Delivery,WARANGAL URBAN,TELANGANA,TS,18.0390483,79.3158533
Telangana Circle,Hyderabad Region,Peddapalli Division,Mallaram B.O,505471,BO,Delivery,WARANGAL URBAN,TELANGANA,TS,18.0283883,79.282015
Telangana Circle,Hyderabad Region,Peddapalli Division,Dharmaram B.O,505471,BO,Delivery,WARANGAL URBAN,TELANGANA,TS,18.0560983,79.2900116
Telangana Circle,Hyderabad Region,Peddapalli Division,Bavopet B.O,505101,BO,Delivery,WARANGAL URBAN,TELANGANA,TS,18.1107964,79.4915092
Telangana Circle,Hyderabad Region,Peddapalli Division,Dandepalli B.O,505101,BO,Delivery,WARANGAL URBAN,TELANGANA,TS,18.1348272,79.4922907
Telangana Circle,Hyderabad Region,Peddapalli Division,Valbhapur B.O,505476,BO,Delivery,WARANGAL URBAN,TELANGANA,TS,18.1304742,79.4380566
Telangana Circle,Hyderabad Region,Peddapalli Division,Gopalpur B.O,505476,BO,Delivery,WARANGAL URBAN,TELANGANA,TS,18.1128029,79.4074475
Bihar Circle,DivReportingCircle,Bhojpur Division,Gaharuaon BO,802204,BO,Delivery,BHOJPUR,BIHAR,BR,25.245595,84.390026
Bihar Circle,DivReportingCircle,Bhojpur Division,Jamorhi BO,802204,BO,Delivery,BHOJPUR,BIHAR,BR,25.258143,84.262863
Bihar Circle,DivReportingCircle,Bhojpur Division,Jethwar Bhatt BO,802204,BO,Delivery,BHOJPUR,BIHAR,BR,25.257151,84.383432
Bihar Circle,DivReportingCircle,Bhojpur Division,Babhaniaon BO,802158,BO,Delivery,BHOJPUR,BIHAR,BR,25.526374,84.319455
Telangana Circle,Hyderabad Region,Peddapalli Division,Wadakapur B.O,505525,BO,Delivery,PEDDAPALLI,TELANGANA,TS,18.6183603,79.2850812
Telangana Circle,Hyderabad Region,Peddapalli Division,Julapalli B.O,505525,BO,Delivery,PEDDAPALLI,TELANGANA,TS,18.6304482,79.2424713
Odisha Circle,DivReportingCircle,Cuttack South Division,Khuntakata B.O,754031,BO,Delivery,CUTTACK,ODISHA,OD,20.4439821,85.400933
Odisha Circle,DivReportingCircle,Cuttack South Division,Mugagahira B.O,754031,BO,Delivery,CUTTACK,ODISHA,OD,20.38909,85.395465
Odisha Circle,DivReportingCircle,Cuttack South Division,Dalijoda Berhampur B.O,754028,BO,Delivery,CUTTACK,ODISHA,OD,20.5976576,85.9179988
Odisha Circle,DivReportingCircle,Cuttack South Division,Gurudijhatia B.O,754028,BO,Delivery,CUTTACK,ODISHA,OD,20.5672335,85.8121095
Odisha Circle,DivReportingCircle,Cuttack South Division,Kakhadi B.O,754027,BO,Delivery,CUTTACK,ODISHA,OD,20.5036576,85.7672522
Odisha Circle,DivReportingCircle,Cuttack South Division,Adheigundi B.O,754037,BO,Delivery,CUTTACK,ODISHA,OD,20.4528994,85.1488734
Odisha Circle,DivReportingCircle,Cuttack South Division,Rusipada B.O,754037,BO,Delivery,CUTTACK,ODISHA,OD,20.4051749,85.1902259
Odisha Circle,DivReportingCircle,Cuttack South Division,Bainchuan B.O,754022,BO,Delivery,CUTTACK,ODISHA,OD,20.26663,85.896005
Odisha Circle,DivReportingCircle,Cuttack South Division,Bhatimunda B.O,754022,BO,Delivery,CUTTACK,ODISHA,OD,20.5343355,86.0218503
Telangana Circle,Hyderabad City Region,Secunderabad Division,Dabirpur B.O,501401,BO,Delivery,MEDCHAL MALKAJGIRI,TELANGANA,TS,NA,NA
Telangana Circle,Hyderabad City Region,Secunderabad Division,Girmapur B.O,501401,BO,Delivery,MEDCHAL MALKAJGIRI,TELANGANA,TS,NA,NA
Telangana Circle,Hyderabad City Region,Secunderabad Division,Gowdavalli B.O,501401,BO,Delivery,MEDCHAL MALKAJGIRI,TELANGANA,TS,NA,NA
Telangana Circle,Hyderabad City Region,Secunderabad Division,Lalgadi Malakpet B.O,500101,BO,Delivery,MEDCHAL MALKAJGIRI,TELANGANA,TS,NA,NA
Andhra Pradesh Circle,Vijayawada Region,Prakasam Division,Mannepalli B.O,523264,BO,Delivery,PRAKASAM,ANDHRA PRADESH,AD,15.765534,79.818455
Andhra Pradesh Circle,Vijayawada Region,Prakasam Division,Sivarampuram B.O,523264,BO,Delivery,PRAKASAM,ANDHRA PRADESH,AD,15.663189,79.948649
Andhra Pradesh Circle,Vijayawada Region,Prakasam Division,Dhenuvakonda B.O,523263,BO,Delivery,PRAKASAM,ANDHRA PRADESH,AD,15.709129,79.944137
Andhra Pradesh Circle,Vijayawada Region,Prakasam Division,Pallamalli B.O,523263,BO,Delivery,PRAKASAM,ANDHRA PRADESH,AD,15.649713,79.906714
Andhra Pradesh Circle,Vijayawada Region,Prakasam Division,Doddavaram B.O,523263,BO,Delivery,PRAKASAM,ANDHRA PRADESH,AD,15.668226,79.939416
Andhra Pradesh Circle,Vijayawada Region,Nellore Division,Thurupurompi Dodla B.O,524221,BO,Delivery,SPSR NELLORE,ANDHRA PRADESH,AD,14.472835,79.899409
Andhra Pradesh Circle,Vijayawada Region,Nellore Division,Kothapeta B.O,524221,BO,Delivery,SPSR NELLORE,ANDHRA PRADESH,AD,14.921048,79.476716
Andhra Pradesh Circle,Vijayawada Region,Nellore Division,Narasimhapuram B.O,524221,BO,Delivery,SPSR NELLORE,ANDHRA PRADESH,AD,15.0097,79.500266
Andhra Pradesh Circle,Vijayawada Region,Nellore Division,Chennuru B.O,524240,BO,Delivery,SPSR NELLORE,ANDHRA PRADESH,AD,14.153986,79.800256
Andhra Pradesh Circle,Vijayawada Region,Nellore Division,Lingalapadu B.O,524240,BO,Delivery,SPSR NELLORE,ANDHRA PRADESH,AD,14.700924,79.866784
Andhra Pradesh Circle,Vijayawada Region,Nellore Division,Kapparallatippa B.O,524152,BO,Delivery,SPSR NELLORE,ANDHRA PRADESH,AD,14.763801,80.036726
Andhra Pradesh Circle,Vijayawada Region,Nellore Division,Ulavapalle B.O,524152,BO,Delivery,SPSR NELLORE,ANDHRA PRADESH,AD,14.539829,79.583872
Andhra Pradesh Circle,Vijayawada Region,Nellore Division,Zuvvaladinne B.O,524152,BO,Delivery,SPSR NELLORE,ANDHRA PRADESH,AD,14.788317,80.070256
Andhra Pradesh Circle,Vijayawada Region,Nellore Division,Somalaregada B.O,524222,BO,Delivery,SPSR NELLORE,ANDHRA PRADESH,AD,14.859439,79.367323
Andhra Pradesh Circle,Vijayawada Region,Nellore Division,Thurpuboyamadugula B.O,524236,BO,Delivery,SPSR NELLORE,ANDHRA PRADESH,AD,14.978575,79.373658
Andhra Pradesh Circle,Vijayawada Region,Prakasam Division,Kunkupadu B.O,523264,BO,Delivery,PRAKASAM,ANDHRA PRADESH,AD,15.772744,79.91997
Andhra Pradesh Circle,Vijayawada Region,Prakasam Division,Lakkavaram B.O,523264,BO,Delivery,PRAKASAM,ANDHRA PRADESH,AD,15.699317,79.793942
Andhra Pradesh Circle,Vijayawada Region,Prakasam Division,Nagambotlavaripalem B.O,523264,BO,Delivery,PRAKASAM,ANDHRA PRADESH,AD,15.680023,79.814678
Andhra Pradesh Circle,Vijayawada Region,Prakasam Division,Mallavaram B.O,523263,BO,Delivery,PRAKASAM,ANDHRA PRADESH,AD,15.65209,79.982057
Andhra Pradesh Circle,Vijayawada Region,Prakasam Division,Nekunambadu B.O,523263,BO,Delivery,PRAKASAM,ANDHRA PRADESH,AD,15.64525,79.921649
Andhra Pradesh Circle,Vijayawada Region,Prakasam Division,Chekurapadu B.O,523262,BO,Delivery,PRAKASAM,ANDHRA PRADESH,AD,15.578951,80.078444
Andhra Pradesh Circle,Vijayawada Region,Nellore Division,Bodagudipadu B.O,524240,BO,Delivery,SPSR NELLORE,ANDHRA PRADESH,AD,14.738067,79.859783
Andhra Pradesh Circle,Vijayawada Region,Nellore Division,Gopannapalem Kandriga B.O,524223,BO,Delivery,SPSR NELLORE,ANDHRA PRADESH,AD,14.909472,79.86491
Andhra Pradesh Circle,Vijayawada Region,Nellore Division,Kammavaripalem B.O,524223,BO,Delivery,SPSR NELLORE,ANDHRA PRADESH,AD,14.818652,79.922768
Andhra Pradesh Circle,Vijayawada Region,Nellore Division,Kothapalli B.O,524223,BO,Delivery,SPSR NELLORE,ANDHRA PRADESH,AD,14.621379,79.290566
Andhra Pradesh Circle,Vijayawada Region,Nellore Division,Lingaraju Agraharam B.O,524223,BO,Delivery,SPSR NELLORE,ANDHRA PRADESH,AD,14.922919,79.916472
Andhra Pradesh Circle,Vijayawada Region,Nellore Division,Somavarappadu B.O,524223,BO,Delivery,SPSR NELLORE,ANDHRA PRADESH,AD,14.782867,79.891915
Andhra Pradesh Circle,Vijayawada Region,Nellore Division,Chinna Annalur B.O,524224,BO,Delivery,SPSR NELLORE,ANDHRA PRADESH,AD,14.90386,79.683887
Andhra Pradesh Circle,Vijayawada Region,Nellore Division,Jirravaripalem B.O,524224,BO,Delivery,SPSR NELLORE,ANDHRA PRADESH,AD,14.835683,79.674066
Andhra Pradesh Circle,Vijayawada Region,Nellore Division,Polampadu B.O,524224,BO,Delivery,SPSR NELLORE,ANDHRA PRADESH,AD,14.829185,79.737884
Andhra Pradesh Circle,Vijayawada Region,Nellore Division,Kunkuvaripalem B.O,524239,BO,Delivery,SPSR NELLORE,ANDHRA PRADESH,AD,14.818652,79.922768
Telangana Circle,Hyderabad City Region,Secunderabad Division,Kanmeta B.O,501503,BO,Delivery,RANGA REDDY,TELANGANA,TS,NA,NA
Telangana Circle,Hyderabad City Region,Secunderabad Division,Kowkunta B.O,501503,BO,Delivery,RANGA REDDY,TELANGANA,TS,NA,NA
Telangana Circle,Hyderabad City Region,Secunderabad Division,Malkapur B.O,501503,BO,Delivery,RANGA REDDY,TELANGANA,TS,NA,NA
Telangana Circle,Hyderabad City Region,Secunderabad Division,Nagawaram B.O,501121,BO,Delivery,VIKARABAD,TELANGANA,TS,NA,NA
Telangana Circle,Hyderabad City Region,Secunderabad Division,Rasnam B.O,501121,BO,Delivery,VIKARABAD,TELANGANA,TS,NA,NA
Telangana Circle,Hyderabad City Region,Secunderabad Division,Morangpalli B.O,501202,BO,Delivery,VIKARABAD,TELANGANA,TS,NA,NA
Telangana Circle,Hyderabad City Region,Secunderabad Division,Patloor B.O,501202,BO,Delivery,VIKARABAD,TELANGANA,TS,NA,NA
Telangana Circle,Hyderabad City Region,Secunderabad Division,Sirpura B.O,501202,BO,Delivery,VIKARABAD,TELANGANA,TS,NA,NA
Telangana Circle,Hyderabad City Region,Secunderabad Division,Tekulapalli B.O,501202,BO,Delivery,VIKARABAD,TELANGANA,TS,NA,NA
Telangana Circle,Hyderabad City Region,Secunderabad Division,Thummalapalli B.O,501202,BO,Delivery,VIKARABAD,TELANGANA,TS,NA,NA
Telangana Circle,Hyderabad City Region,Secunderabad Division,Velchal B.O,501202,BO,Delivery,VIKARABAD,TELANGANA,TS,NA,NA
Telangana Circle,Hyderabad City Region,Secunderabad Division,Chanchalpet B.O,501111,BO,Delivery,VIKARABAD,TELANGANA,TS,NA,NA
Telangana Circle,Hyderabad City Region,Secunderabad Division,Chimaldari B.O,501111,BO,Delivery,VIKARABAD,TELANGANA,TS,NA,NA
Telangana Circle,Hyderabad City Region,Secunderabad Division,Devarampalli B.O,501111,BO,Delivery,VIKARABAD,TELANGANA,TS,NA,NA
Telangana Circle,Hyderabad City Region,Secunderabad Division,Adikcherla B.O,501142,BO,Delivery,VIKARABAD,TELANGANA,TS,NA,NA
Telangana Circle,Hyderabad City Region,Secunderabad Division,Gazipur B.O,501142,BO,Delivery,VIKARABAD,TELANGANA,TS,NA,NA
Telangana Circle,Hyderabad City Region,Secunderabad Division,Chengomal B.O,501501,BO,Delivery,VIKARABAD,TELANGANA,TS,NA,NA
Telangana Circle,Hyderabad City Region,Secunderabad Division,Peda Umenthyal B.O,501501,BO,Delivery,VIKARABAD,TELANGANA,TS,NA,NA
Telangana Circle,Hyderabad City Region,Secunderabad Division,Peta Madaram B.O,501501,BO,Delivery,VIKARABAD,TELANGANA,TS,NA,NA
Telangana Circle,Hyderabad City Region,Secunderabad Division,Sultanpur B.O,501501,BO,Delivery,VIKARABAD,TELANGANA,TS,NA,NA
Telangana Circle,Hyderabad City Region,Secunderabad Division,Maharajpet B.O,501203,BO,Delivery,RANGA REDDY,TELANGANA,TS,NA,NA
Telangana Circle,Hyderabad City Region,Secunderabad Division,Mokila B.O,501203,BO,Delivery,RANGA REDDY,TELANGANA,TS,NA,NA
Telangana Circle,Hyderabad City Region,Secunderabad Division,Mubarakpur B.O,501203,BO,Delivery,VIKARABAD,TELANGANA,TS,NA,NA
Telangana Circle,Hyderabad City Region,Secunderabad Division,Parveda B.O,501203,BO,Delivery,RANGA REDDY,TELANGANA,TS,NA,NA
Telangana Circle,Hyderabad City Region,Secunderabad Division,Singapur B.O,501203,BO,Delivery,RANGA REDDY,TELANGANA,TS,NA,NA
Telangana Circle,Hyderabad City Region,Secunderabad Division,Yellakonda B.O,501203,BO,Delivery,VIKARABAD,TELANGANA,TS,NA,NA
Telangana Circle,Hyderabad City Region,Secunderabad Division,Yelvawthy B.O,501203,BO,Delivery,RANGA REDDY,TELANGANA,TS,NA,NA
Telangana Circle,Hyderabad City Region,Secunderabad Division,Chengole B.O,501141,BO,Delivery,VIKARABAD,TELANGANA,TS,NA,NA
Telangana Circle,Hyderabad City Region,Secunderabad Division,Gingurthi B.O,501141,BO,Delivery,VIKARABAD,TELANGANA,TS,NA,NA
Telangana Circle,Hyderabad City Region,Secunderabad Division,Kokat B.O,501141,BO,Delivery,VIKARABAD,TELANGANA,TS,NA,NA
Telangana Circle,Hyderabad City Region,Secunderabad Division,Narayanpur B.O,501141,BO,Delivery,VIKARABAD,TELANGANA,TS,NA,NA
Bihar Circle,"East Region, Bhagalpur",Bhagalpur Division,Phulakia BO,853205,BO,Delivery,BHAGALPUR,BIHAR,BR,86.26455,24.75533
Bihar Circle,"East Region, Bhagalpur",Bhagalpur Division,Agarpur BO,813210,BO,Delivery,BHAGALPUR,BIHAR,BR,24,87.201
Bihar Circle,"East Region, Bhagalpur",Bhagalpur Division,Alinagear Rajpur BO,813210,BO,Delivery,BHAGALPUR,BIHAR,BR,24.563,86.302
Bihar Circle,"East Region, Bhagalpur",Bhagalpur Division,Kumri BO,813212,BO,Delivery,BANKA,BIHAR,BR,25.365,86.321
Bihar Circle,"East Region, Bhagalpur",Bhagalpur Division,Santadih BO,813212,BO,Delivery,BANKA,BIHAR,BR,86.21236,24.85533
Bihar Circle,"East Region, Bhagalpur",Bhagalpur Division,Thilkulia BO,813212,BO,Delivery,BANKA,BIHAR,BR,86.65224,24.85533
Bihar Circle,"East Region, Bhagalpur",Bhagalpur Division,Afzugaj BO,813213,BO,Delivery,BHAGALPUR,BIHAR,BR,84.425,24.147
Bihar Circle,"East Region, Bhagalpur",Bhagalpur Division,Ahiro BO,813110,BO,Delivery,BANKA,BIHAR,BR,86.26455,24.7553
Bihar Circle,"East Region, Bhagalpur",Bhagalpur Division,Chalna BO,813110,BO,Delivery,BANKA,BIHAR,BR,86.26455,24.75533
Jharkhand Circle,NA,Palamau Division,Tilo BO,822123,BO,Delivery,PALAMU,JHARKHAND,JH,24.19254,84.35026
Andhra Pradesh Circle,Visakhapatnam Region,Anakapalle Division,Golugonda BO,531084,BO,Delivery,VISAKHAPATANAM,ANDHRA PRADESH,AD,NA,NA
Andhra Pradesh Circle,Visakhapatnam Region,Anakapalle Division,Addasaram BO,531114,BO,Delivery,VISAKHAPATANAM,ANDHRA PRADESH,AD,NA,NA
Andhra Pradesh Circle,Visakhapatnam Region,Anakapalle Division,A Kothapalle B.O,531022,BO,Delivery,VISAKHAPATANAM,ANDHRA PRADESH,AD,17.235568,82.404842
Andhra Pradesh Circle,Visakhapatnam Region,Anakapalle Division,Anandapuram B.O,531022,BO,Delivery,VISAKHAPATANAM,ANDHRA PRADESH,AD,17.957777,83.052864
Jharkhand Circle,NA,Palamau Division,Bhatwaliya BO,822132,BO,Delivery,PALAMU,JHARKHAND,JH,24.32825,83.95193
Jharkhand Circle,NA,Palamau Division,Musikhap BO,822132,BO,Delivery,PALAMU,JHARKHAND,JH,24.31543,83.98302
Maharashtra Circle,Nagpur Region,Amaravati Division,Bhatkuli S.O,444602,PO,Non Delivery,AMRAVATI,MAHARASHTRA,MH,20.907,77.6026
Andhra Pradesh Circle,Visakhapatnam Region,Anakapalle Division,Dosalapadu BO,531126,BO,Delivery,VISAKHAPATANAM,ANDHRA PRADESH,AD,NA,NA
Andhra Pradesh Circle,Visakhapatnam Region,Anakapalle Division,Nallagonda BO,531084,BO,Delivery,VISAKHAPATANAM,ANDHRA PRADESH,AD,NA,NA
Andhra Pradesh Circle,Kurnool Region,Proddatur Division,Tangedupalle B.O,516329,BO,Delivery,Y.S.R.,ANDHRA PRADESH,AD,14.3923581,78.480938
Andhra Pradesh Circle,Kurnool Region,Proddatur Division,C Kothapalle B.O,516293,BO,Delivery,Y.S.R.,ANDHRA PRADESH,AD,14.5757882,78.7384084
Andhra Pradesh Circle,Kurnool Region,Proddatur Division,Gangayapalle B.O,516293,BO,Delivery,Y.S.R.,ANDHRA PRADESH,AD,14.5549145,78.7174455
Andhra Pradesh Circle,Kurnool Region,Proddatur Division,Gotur B.O,516293,BO,Delivery,Y.S.R.,ANDHRA PRADESH,AD,14.4594227,78.323398
Andhra Pradesh Circle,Kurnool Region,Proddatur Division,Obulareddypalle B.O,516321,BO,Delivery,Y.S.R.,ANDHRA PRADESH,AD,14.43567,78.4445583
Andhra Pradesh Circle,Visakhapatnam Region,Anakapalle Division,Mushidipalli B.O,531022,BO,Delivery,VISAKHAPATANAM,ANDHRA PRADESH,AD,17.940412,83.019004
Andhra Pradesh Circle,Visakhapatnam Region,Anakapalle Division,K.J.Puram B.O,531022,BO,Delivery,VISAKHAPATANAM,ANDHRA PRADESH,AD,17.9241,83.064326
Andhra Pradesh Circle,Visakhapatnam Region,Anakapalle Division,Bondam B.O,531149,BO,Delivery,VISAKHAPATANAM,ANDHRA PRADESH,AD,18.3084283,82.990625
Andhra Pradesh Circle,Visakhapatnam Region,Anakapalle Division,Burja B.O,531149,BO,Delivery,VISAKHAPATANAM,ANDHRA PRADESH,AD,18.2164592,82.904521
Andhra Pradesh Circle,Visakhapatnam Region,Anakapalle Division,Chompi B.O,531149,BO,Delivery,VISAKHAPATANAM,ANDHRA PRADESH,AD,18.3155716,82.8686933
Andhra Pradesh Circle,Visakhapatnam Region,Anakapalle Division,Koruvada B.O,531022,BO,Delivery,VISAKHAPATANAM,ANDHRA PRADESH,AD,17.931746,83.080384
Andhra Pradesh Circle,Visakhapatnam Region,Anakapalle Division,Rama Yogi Agraharam B.O,531022,BO,Delivery,VISAKHAPATANAM,ANDHRA PRADESH,AD,17.931879,83.059001
Andhra Pradesh Circle,Visakhapatnam Region,Anakapalle Division,Varada B.O,531022,BO,Delivery,VISAKHAPATANAM,ANDHRA PRADESH,AD,17.936125,83.039989
Andhra Pradesh Circle,Visakhapatnam Region,Anakapalle Division,Gavarapalem B.O,531022,BO,Delivery,VISAKHAPATANAM,ANDHRA PRADESH,AD,17.916571,83.078805
Telangana Circle,Hyderabad City Region,Secunderabad Division,Agnoor B.O,501144,BO,Delivery,VIKARABAD,TELANGANA,TS,NA,NA
Telangana Circle,Hyderabad City Region,Secunderabad Division,Bennur B.O,501144,BO,Delivery,VIKARABAD,TELANGANA,TS,NA,NA
Telangana Circle,Hyderabad City Region,Secunderabad Division,Chennaram B.O,501144,BO,Delivery,VIKARABAD,TELANGANA,TS,NA,NA
Telangana Circle,Hyderabad City Region,Secunderabad Division,Timmaipalli B.O,501144,BO,Delivery,VIKARABAD,TELANGANA,TS,NA,NA
Telangana Circle,Hyderabad City Region,Secunderabad Division,Amdapur B.O,501504,BO,Delivery,RANGA REDDY,TELANGANA,TS,NA,NA
Telangana Circle,Hyderabad City Region,Secunderabad Division,Chilkur B.O,501504,BO,Delivery,RANGA REDDY,TELANGANA,TS,NA,NA
Telangana Circle,Hyderabad City Region,Secunderabad Division,Kanakamamidi B.O,501504,BO,Non Delivery,RANGA REDDY,TELANGANA,TS,NA,NA
Telangana Circle,Hyderabad City Region,Secunderabad Division,Anantagiripally B.O,501102,BO,Non Delivery,VIKARABAD,TELANGANA,TS,NA,NA
Telangana Circle,Hyderabad City Region,Secunderabad Division,Atveli B.O,501102,BO,Non Delivery,VIKARABAD,TELANGANA,TS,NA,NA
Telangana Circle,Hyderabad City Region,Secunderabad Division,Sivareddypet B.O,501102,BO,Non Delivery,VIKARABAD,TELANGANA,TS,NA,NA
Andhra Pradesh Circle,Vijayawada Region,Nellore Division,Somasila Hill Colony S.O,524300,PO,Delivery,SPSR NELLORE,ANDHRA PRADESH,AD,14.4948518,79.3110859
Telangana Circle,Hyderabad City Region,Hyderabad South East Division,Tatiparthy B.O,501509,BO,Delivery,RANGA REDDY,TELANGANA,TS,NA,NA
Telangana Circle,Hyderabad City Region,Hyderabad South East Division,Toolkhurd B.O,501509,BO,Delivery,RANGA REDDY,TELANGANA,TS,NA,NA
Telangana Circle,Hyderabad City Region,Secunderabad Division,Ankushapur B.O,501301,BO,Delivery,MEDCHAL MALKAJGIRI,TELANGANA,TS,NA,NA
Telangana Circle,Hyderabad City Region,Secunderabad Division,Cherial B.O,501301,BO,Delivery,MEDCHAL MALKAJGIRI,TELANGANA,TS,NA,NA
Telangana Circle,Hyderabad City Region,Secunderabad Division,Rampallidiara B.O,501301,BO,Delivery,MEDCHAL MALKAJGIRI,TELANGANA,TS,NA,NA
Telangana Circle,Hyderabad City Region,Secunderabad Division,Rompally B.O,501301,BO,Delivery,MEDCHAL MALKAJGIRI,TELANGANA,TS,NA,NA
Telangana Circle,Hyderabad City Region,Secunderabad Division,Bowrampet B.O,500043,BO,Delivery,MEDCHAL MALKAJGIRI,TELANGANA,TS,NA,NA
Telangana Circle,Hyderabad City Region,Secunderabad Division,Gagillapur B.O,500043,BO,Delivery,MEDCHAL MALKAJGIRI,TELANGANA,TS,NA,NA
Telangana Circle,Hyderabad City Region,Secunderabad Division,Kutbullapur B.O,500055,BO,Delivery,MEDCHAL MALKAJGIRI,TELANGANA,TS,NA,NA
Telangana Circle,Hyderabad City Region,Secunderabad Division,Doolapalli B.O,500100,BO,Delivery,MEDCHAL MALKAJGIRI,TELANGANA,TS,NA,NA
Telangana Circle,Hyderabad City Region,Secunderabad Division,Nutankal B.O,501401,BO,Delivery,MEDCHAL MALKAJGIRI,TELANGANA,TS,NA,NA
Telangana Circle,Hyderabad City Region,Secunderabad Division,Pudur B.O,501401,BO,Delivery,MEDCHAL MALKAJGIRI,TELANGANA,TS,NA,NA
Telangana Circle,Hyderabad City Region,Secunderabad Division,Ravalkol B.O,501401,BO,Delivery,MEDCHAL MALKAJGIRI,TELANGANA,TS,NA,NA
Telangana Circle,Hyderabad City Region,Secunderabad Division,Devaryamjal B.O,500078,BO,Delivery,MEDCHAL MALKAJGIRI,TELANGANA,TS,NA,NA
Telangana Circle,Hyderabad City Region,Secunderabad Division,Kolthur B.O,500101,BO,Delivery,MEDCHAL MALKAJGIRI,TELANGANA,TS,NA,NA
Telangana Circle,Hyderabad City Region,Secunderabad Division,Kyasaram B.O,500101,BO,Delivery,MEDCHAL MALKAJGIRI,TELANGANA,TS,NA,NA
Andhra Pradesh Circle,Vijayawada Region,Prakasam Division,Madhavaram B.O,523264,BO,Delivery,PRAKASAM,ANDHRA PRADESH,AD,15.72767,79.850264
Andhra Pradesh Circle,Vijayawada Region,Prakasam Division,Rajanagaram B.O,523264,BO,Delivery,PRAKASAM,ANDHRA PRADESH,AD,15.740834,79.912783
Andhra Pradesh Circle,Vijayawada Region,Prakasam Division,Chandrapadu B.O,523263,BO,Delivery,PRAKASAM,ANDHRA PRADESH,AD,15.636979,79.945851
Andhra Pradesh Circle,Vijayawada Region,Prakasam Division,Ilapavuluru B.O,523263,BO,Delivery,PRAKASAM,ANDHRA PRADESH,AD,15.680291,79.9171
Andhra Pradesh Circle,Vijayawada Region,Nellore Division,Talluru B.O,524142,BO,Delivery,SPSR NELLORE,ANDHRA PRADESH,AD,16.51269,80.112847
Andhra Pradesh Circle,Vijayawada Region,Nellore Division,Isaka Damerla B.O,524221,BO,Delivery,SPSR NELLORE,ANDHRA PRADESH,AD,14.993672,79.551212
Bihar Circle,"East Region, Bhagalpur",Begusarai Division,Chorhli BO,852161,BO,Delivery,KHAGARIA,BIHAR,BR,25.511152,86.476908
Bihar Circle,"East Region, Bhagalpur",Begusarai Division,Mohinath Nagar BO,852161,BO,Delivery,KHAGARIA,BIHAR,BR,25.511152,86.476908
Bihar Circle,"East Region, Bhagalpur",Begusarai Division,Pansalwa BO,852161,BO,Delivery,KHAGARIA,BIHAR,BR,25.511152,86.476908
Bihar Circle,"East Region, Bhagalpur",Begusarai Division,Pirnagra Deorhi BO,852161,BO,Delivery,KHAGARIA,BIHAR,BR,25.511152,86.476908
Bihar Circle,"East Region, Bhagalpur",Begusarai Division,Borney BO,851201,BO,Delivery,KHAGARIA,BIHAR,BR,25.511152,86.476908
Bihar Circle,"East Region, Bhagalpur",Begusarai Division,Paura BO,851201,BO,Delivery,KHAGARIA,BIHAR,BR,25.511152,86.476908
Andhra Pradesh Circle,Vijayawada Region,Bhimavaram Division,Ankoderu B.O,534208,BO,Delivery,WEST GODAVARI,ANDHRA PRADESH,AD,16.485133,81.48831
Andhra Pradesh Circle,Vijayawada Region,Bhimavaram Division,China amiram B.O,534204,BO,Non Delivery,WEST GODAVARI,ANDHRA PRADESH,AD,16.536415,81.492427
Andhra Pradesh Circle,Vijayawada Region,Bhimavaram Division,Pedagaruvu B.O,534207,BO,Delivery,WEST GODAVARI,ANDHRA PRADESH,AD,16.491681,81.616659
Andhra Pradesh Circle,Vijayawada Region,Bhimavaram Division,Arthamuru B.O,534199,BO,Delivery,WEST GODAVARI,ANDHRA PRADESH,AD,16.613141,81.424699
Bihar Circle,"East Region, Bhagalpur",Begusarai Division,Bagras BO,848201,BO,Delivery,BEGUSARAI,BIHAR,BR,25.416675,86.1293792
Bihar Circle,"East Region, Bhagalpur",Begusarai Division,Deopura BO,848201,BO,Delivery,BEGUSARAI,BIHAR,BR,25.416675,86.129379
Bihar Circle,"East Region, Bhagalpur",Begusarai Division,Samsa BO,848201,BO,Delivery,BEGUSARAI,BIHAR,BR,25.416675,86.129379
Bihar Circle,"East Region, Bhagalpur",Begusarai Division,Fateha BO,851111,BO,Delivery,BEGUSARAI,BIHAR,BR,25.416675,86.129379
Bihar Circle,"East Region, Bhagalpur",Begusarai Division,Manopur BO,851111,BO,Delivery,BEGUSARAI,BIHAR,BR,25.416675,86.129379
Bihar Circle,"East Region, Bhagalpur",Begusarai Division,NSheotol BO,851111,BO,Delivery,BEGUSARAI,BIHAR,BR,25.416675,86.129379
Bihar Circle,"East Region, Bhagalpur",Begusarai Division,Dhankaul BO,851112,BO,Delivery,BEGUSARAI,BIHAR,BR,25.5107742,85.9993997
Bihar Circle,"East Region, Bhagalpur",Begusarai Division,MBabhangama BO,851112,BO,Delivery,BEGUSARAI,BIHAR,BR,25.416675,86.1293792
Bihar Circle,"East Region, Bhagalpur",Begusarai Division,Ninga BO,851112,BO,Delivery,BEGUSARAI,BIHAR,BR,25.4715795,86.0809938
Bihar Circle,"East Region, Bhagalpur",Begusarai Division,Amarpur BO,851118,BO,Delivery,BEGUSARAI,BIHAR,BR,25.416675,86.129379
Bihar Circle,"East Region, Bhagalpur",Begusarai Division,Neola BO,851120,BO,Delivery,BEGUSARAI,BIHAR,BR,25.416675,86.129379
Andhra Pradesh Circle,Kurnool Region,Hindupur Division,Kallagiri B.O,515241,BO,Delivery,ANANTAPUR,ANDHRA PRADESH,AD,13.98,77.71
Andhra Pradesh Circle,Kurnool Region,Hindupur Division,Nyamaddala B.O,515101,BO,Delivery,ANANTAPUR,ANDHRA PRADESH,AD,14.25,77.58
Andhra Pradesh Circle,Kurnool Region,Hindupur Division,Puletipalli B.O,515101,BO,Delivery,ANANTAPUR,ANDHRA PRADESH,AD,14.27,77.67
Andhra Pradesh Circle,Kurnool Region,Hindupur Division,Tekulodu B.O,515341,BO,Delivery,ANANTAPUR,ANDHRA PRADESH,AD,13.84,77.71
Andhra Pradesh Circle,Kurnool Region,Hindupur Division,Karavulapalli B.O,515231,BO,Delivery,ANANTAPUR,ANDHRA PRADESH,AD,13.983806,77.772306
Andhra Pradesh Circle,Kurnool Region,Hindupur Division,Vanavolu B.O,515231,BO,Delivery,ANANTAPUR,ANDHRA PRADESH,AD,13.983811,77.772311
Andhra Pradesh Circle,Kurnool Region,Hindupur Division,M.Rayapuram B.O,515271,BO,Delivery,ANANTAPUR,ANDHRA PRADESH,AD,13.975406,77.104406
Andhra Pradesh Circle,Kurnool Region,Hindupur Division,Mandalahalli B.O,515271,BO,Delivery,ANANTAPUR,ANDHRA PRADESH,AD,13.975407,77.104407
Andhra Pradesh Circle,Kurnool Region,Hindupur Division,Phalaram B.O,515271,BO,Delivery,ANANTAPUR,ANDHRA PRADESH,AD,13.975409,77.104409
Andhra Pradesh Circle,Kurnool Region,Hindupur Division,Srirangarajupalli B.O,515212,BO,Delivery,ANANTAPUR,ANDHRA PRADESH,AD,13.828924,77.493287
Andhra Pradesh Circle,Kurnool Region,Hindupur Division,Cheepuleti B.O,515303,BO,Delivery,ANANTAPUR,ANDHRA PRADESH,AD,13.9402894,77.2717069
Andhra Pradesh Circle,Kurnool Region,Hindupur Division,Chikirevulapalli B.O,515556,BO,Delivery,ANANTAPUR,ANDHRA PRADESH,AD,13.89,78.03
Andhra Pradesh Circle,Kurnool Region,Hindupur Division,Malyavantham B.O,515661,BO,Delivery,ANANTAPUR,ANDHRA PRADESH,AD,14.5,77.77
Telangana Circle,Hyderabad Region,Peddapalli Division,Laxmipuram B.O,505505,BO,Delivery,KARIMNAGAR,TELANGANA,TS,18.4514699,79.282675
Telangana Circle,Hyderabad Region,Peddapalli Division,Aknoor B.O,505472,BO,Delivery,KARIMNAGAR,TELANGANA,TS,18.1862049,79.2842233
Telangana Circle,Hyderabad Region,Peddapalli Division,Bommanapalli B.O,505472,BO,Delivery,KARIMNAGAR,TELANGANA,TS,18.2107199,79.2387633
Telangana Circle,Hyderabad Region,Peddapalli Division,Mohammadapur B.O,505472,BO,Delivery,SIDDIPET,TELANGANA,TS,18.1642466,79.2375649
Telangana Circle,Hyderabad Region,Peddapalli Division,Gangipalli B.O,505474,BO,Delivery,KARIMNAGAR,TELANGANA,TS,18.3659783,79.2753483
Telangana Circle,Hyderabad Region,Peddapalli Division,Raikal B.O,505480,BO,Delivery,KARIMNAGAR,TELANGANA,TS,18.1577833,79.3170616
Telangana Circle,Hyderabad Region,Peddapalli Division,Bommakal B.O,505480,BO,Delivery,KARIMNAGAR,TELANGANA,TS,18.1619766,79.3392066
Telangana Circle,Hyderabad Region,Peddapalli Division,Bijgirsharif B.O,505475,BO,Delivery,KARIMNAGAR,TELANGANA,TS,NA,NA
Telangana Circle,Hyderabad Region,Peddapalli Division,Bijnur B.O,505475,BO,Delivery,KARIMNAGAR,TELANGANA,TS,NA,NA
Telangana Circle,Hyderabad Region,Peddapalli Division,Thanugula B.O,505475,BO,Delivery,KARIMNAGAR,TELANGANA,TS,18.3766766,79.510565
Telangana Circle,Hyderabad Region,Peddapalli Division,Kondapaka B.O,505502,BO,Delivery,KARIMNAGAR,TELANGANA,TS,18.3901578,79.4901955
Telangana Circle,Hyderabad Region,Peddapalli Division,Narsingapur B.O,505502,BO,Delivery,KARIMNAGAR,TELANGANA,TS,18.3600431,79.4164577
Odisha Circle,DivReportingCircle,Cuttack South Division,Ragadipada B.O,754031,BO,Delivery,CUTTACK,ODISHA,OD,20.4153466,85.3809799
Odisha Circle,DivReportingCircle,Cuttack South Division,Sankhameri B.O,754031,BO,Delivery,CUTTACK,ODISHA,OD,20.3756716,85.3390416
Odisha Circle,DivReportingCircle,Cuttack South Division,Sasang B.O,754031,BO,Delivery,CUTTACK,ODISHA,OD,22.0135599,85.6564583
Andhra Pradesh Circle,Kurnool Region,Anantapur Division,Darga Kondaopuram B.O,515865,BO,Delivery,ANANTAPUR,ANDHRA PRADESH,AD,14.71,76.72
Andhra Pradesh Circle,Kurnool Region,Anantapur Division,Gramadatla B.O,515865,BO,Delivery,ANANTAPUR,ANDHRA PRADESH,AD,14.78,76.9
Andhra Pradesh Circle,Kurnool Region,Anantapur Division,Pulakurthy B.O,515865,BO,Delivery,ANANTAPUR,ANDHRA PRADESH,AD,15.27,76.85
Andhra Pradesh Circle,Kurnool Region,Anantapur Division,R.Kothapalli B.O,515865,BO,Delivery,ANANTAPUR,ANDHRA PRADESH,AD,14.98,76.14
Andhra Pradesh Circle,Kurnool Region,Anantapur Division,T.Veerapuram B.O,515865,BO,Delivery,ANANTAPUR,ANDHRA PRADESH,AD,14.71,76.18
Andhra Pradesh Circle,Kurnool Region,Anantapur Division,Veerapuram B.O,515865,BO,Delivery,ANANTAPUR,ANDHRA PRADESH,AD,15.03,76.12
Andhra Pradesh Circle,Kurnool Region,Anantapur Division,Puppala B.O,515455,BO,Delivery,ANANTAPUR,ANDHRA PRADESH,AD,15.16,77.65
Andhra Pradesh Circle,Kurnool Region,Anantapur Division,Ravuludiki B.O,515455,BO,Delivery,ANANTAPUR,ANDHRA PRADESH,AD,15.06,77.64
Andhra Pradesh Circle,Kurnool Region,Anantapur Division,Rachepalli B.O,515611,BO,Delivery,ANANTAPUR,ANDHRA PRADESH,AD,15.12,77.23
Andhra Pradesh Circle,Kurnool Region,Anantapur Division,Netrapalli B.O,515867,BO,Delivery,ANANTAPUR,ANDHRA PRADESH,AD,14.34,77.15
Andhra Pradesh Circle,Kurnool Region,Anantapur Division,Rangachedu B.O,515867,BO,Delivery,ANANTAPUR,ANDHRA PRADESH,AD,15,76.73